; G-code optimized for servo control
G21 ; Set units to millimeters
G90 ; Absolute positioning
G28 ; Home all axes
M3 S90 ; PEN DOWN
G92 X0.0 Y0.0 Z0 ; Set origin offset
M3 S30 ; PEN UP (initial state)

G20
M3 S50 ; PEN DOWN
G17
G90
M3 S30 ; PEN UP
M3 S40 ; PEN UP
G00 X6.3125 Y2.3958
G01 X6.3229 Y2.3854
G01 X6.3229 Y2.3750
G01 X6.3229 Y2.3646
G01 X6.3229 Y2.3542
G01 X6.3229 Y2.3438
G01 X6.3229 Y2.3542
G01 X6.3229 Y2.3646
G01 X6.3229 Y2.3750
G01 X6.3229 Y2.3854
G00 X6.3542 Y2.6771
G01 X6.3646 Y2.6667
G01 X6.3646 Y2.6562
G01 X6.3646 Y2.6458
G01 X6.3646 Y2.6354
G01 X6.3646 Y2.6250
G01 X6.3646 Y2.6146
G01 X6.3646 Y2.6042
G01 X6.3646 Y2.5938
G01 X6.3750 Y2.5833
G01 X6.3750 Y2.5729
G01 X6.3750 Y2.5625
G01 X6.3750 Y2.5521
G01 X6.3750 Y2.5417
G01 X6.3750 Y2.5312
G01 X6.3750 Y2.5208
G01 X6.3750 Y2.5104
G01 X6.3750 Y2.5000
G01 X6.3750 Y2.4896
G01 X6.3854 Y2.4792
G01 X6.3854 Y2.4688
G01 X6.3854 Y2.4583
G01 X6.3854 Y2.4479
G01 X6.3854 Y2.4375
G01 X6.3854 Y2.4271
G01 X6.3854 Y2.4167
G01 X6.3854 Y2.4062
G01 X6.3854 Y2.3958
G01 X6.3854 Y2.3854
G01 X6.3854 Y2.3750
G01 X6.3854 Y2.3646
G01 X6.3854 Y2.3542
G01 X6.3854 Y2.3438
G01 X6.3854 Y2.3333
G01 X6.3854 Y2.3229
G01 X6.3854 Y2.3125
G01 X6.3854 Y2.3021
G01 X6.3854 Y2.2917
G01 X6.3854 Y2.2812
G01 X6.3854 Y2.2708
G01 X6.3750 Y2.2604
G01 X6.3750 Y2.2500
G01 X6.3646 Y2.2396
G01 X6.3542 Y2.2292
G01 X6.3438 Y2.2188
G01 X6.3333 Y2.2188
G01 X6.3229 Y2.2188
G01 X6.3125 Y2.2188
G01 X6.3021 Y2.2188
G01 X6.2917 Y2.2188
G01 X6.2812 Y2.2188
G01 X6.2708 Y2.2292
G01 X6.2604 Y2.2396
G01 X6.2708 Y2.2292
G01 X6.2812 Y2.2188
G01 X6.2917 Y2.2188
G01 X6.3021 Y2.2188
G01 X6.3125 Y2.2188
G01 X6.3229 Y2.2188
G01 X6.3333 Y2.2188
G01 X6.3438 Y2.2188
G01 X6.3542 Y2.2292
G01 X6.3646 Y2.2396
G01 X6.3750 Y2.2500
G01 X6.3750 Y2.2604
G01 X6.3854 Y2.2708
G01 X6.3854 Y2.2812
G01 X6.3854 Y2.2917
G01 X6.3854 Y2.3021
G01 X6.3854 Y2.3125
G01 X6.3854 Y2.3229
G01 X6.3854 Y2.3333
G01 X6.3854 Y2.3438
G01 X6.3854 Y2.3542
G01 X6.3854 Y2.3646
G01 X6.3854 Y2.3750
G01 X6.3854 Y2.3854
G01 X6.3854 Y2.3958
G01 X6.3854 Y2.4062
G01 X6.3854 Y2.4167
G01 X6.3854 Y2.4271
G01 X6.3854 Y2.4375
G01 X6.3854 Y2.4479
G01 X6.3854 Y2.4583
G01 X6.3854 Y2.4688
G01 X6.3854 Y2.4792
G01 X6.3750 Y2.4896
G01 X6.3750 Y2.5000
G01 X6.3750 Y2.5104
G01 X6.3750 Y2.5208
G01 X6.3750 Y2.5312
G01 X6.3750 Y2.5417
G01 X6.3750 Y2.5521
G01 X6.3750 Y2.5625
G01 X6.3750 Y2.5729
G01 X6.3750 Y2.5833
G01 X6.3646 Y2.5938
G01 X6.3646 Y2.6042
G01 X6.3646 Y2.6146
G01 X6.3646 Y2.6250
G01 X6.3646 Y2.6354
G01 X6.3646 Y2.6458
G01 X6.3646 Y2.6562
G01 X6.3646 Y2.6667
G01 X6.3542 Y2.6771
G01 X6.3542 Y2.6875
G00 X6.3542 Y2.7812
G01 X6.3542 Y2.7708
G01 X6.3542 Y2.7604
G01 X6.3542 Y2.7500
G01 X6.3542 Y2.7396
G01 X6.3542 Y2.7292
G01 X6.3542 Y2.7396
G01 X6.3542 Y2.7500
G01 X6.3542 Y2.7604
G01 X6.3542 Y2.7708
G01 X6.3542 Y2.7812
G01 X6.3542 Y2.7917
G00 X6.3438 Y2.8750
G01 X6.3333 Y2.8854
G00 X6.3229 Y2.9479
G01 X6.3333 Y2.9479
G01 X6.3229 Y2.9479
G01 X6.3125 Y2.9583
G00 X6.1042 Y3.4792
G01 X6.0938 Y3.4792
G00 X5.9792 Y3.7188
G01 X5.9896 Y3.7083
G01 X6.0000 Y3.6979
G01 X6.0000 Y3.6875
G01 X6.0000 Y3.6771
G01 X6.0000 Y3.6667
G01 X6.0000 Y3.6562
G01 X6.0104 Y3.6458
G01 X6.0104 Y3.6354
G01 X6.0208 Y3.6250
G01 X6.0208 Y3.6146
G01 X6.0312 Y3.6042
G01 X6.0417 Y3.5938
G01 X6.0417 Y3.5833
G01 X6.0521 Y3.5729
G01 X6.0521 Y3.5625
G01 X6.0625 Y3.5521
G01 X6.0625 Y3.5417
G01 X6.0729 Y3.5312
G01 X6.0729 Y3.5208
G01 X6.0729 Y3.5312
G01 X6.0625 Y3.5417
G01 X6.0625 Y3.5521
G01 X6.0521 Y3.5625
G01 X6.0521 Y3.5729
G01 X6.0417 Y3.5833
G01 X6.0417 Y3.5938
G01 X6.0312 Y3.6042
G01 X6.0208 Y3.6146
G01 X6.0208 Y3.6250
G01 X6.0104 Y3.6354
G01 X6.0104 Y3.6458
G01 X6.0000 Y3.6562
G01 X6.0000 Y3.6667
G01 X6.0000 Y3.6771
G01 X6.0000 Y3.6875
G01 X6.0000 Y3.6979
G01 X5.9896 Y3.7083
G01 X5.9792 Y3.7188
G01 X5.9688 Y3.7188
G01 X5.9583 Y3.7083
G01 X5.9479 Y3.6979
G01 X5.9479 Y3.6875
G01 X5.9479 Y3.6771
G01 X5.9479 Y3.6667
G01 X5.9479 Y3.6562
G01 X5.9375 Y3.6458
G01 X5.9375 Y3.6354
G01 X5.9375 Y3.6250
G01 X5.9479 Y3.6146
G01 X5.9479 Y3.6042
G01 X5.9583 Y3.5938
G01 X5.9583 Y3.5833
G01 X5.9583 Y3.5729
G01 X5.9688 Y3.5625
G01 X5.9792 Y3.5521
G01 X5.9792 Y3.5417
G01 X5.9792 Y3.5312
G01 X5.9896 Y3.5208
G01 X5.9896 Y3.5104
G01 X5.9896 Y3.5000
G01 X6.0000 Y3.4896
G01 X6.0000 Y3.4792
G01 X6.0000 Y3.4688
G01 X6.0000 Y3.4583
G01 X6.0000 Y3.4479
G01 X6.0104 Y3.4375
G01 X6.0104 Y3.4271
G01 X6.0104 Y3.4167
G01 X6.0104 Y3.4062
G01 X6.0208 Y3.3958
G01 X6.0208 Y3.3854
G01 X6.0208 Y3.3750
G01 X6.0208 Y3.3646
G01 X6.0208 Y3.3542
G01 X6.0208 Y3.3438
G01 X6.0312 Y3.3333
G01 X6.0312 Y3.3229
G01 X6.0312 Y3.3125
G01 X6.0312 Y3.3021
G01 X6.0417 Y3.2917
G01 X6.0417 Y3.2812
G01 X6.0417 Y3.2708
G01 X6.0417 Y3.2604
G01 X6.0417 Y3.2500
G01 X6.0417 Y3.2396
G01 X6.0521 Y3.2292
G01 X6.0521 Y3.2188
G01 X6.0521 Y3.2083
G01 X6.0521 Y3.1979
G01 X6.0521 Y3.1875
G01 X6.0521 Y3.1771
G01 X6.0625 Y3.1667
G01 X6.0625 Y3.1562
G01 X6.0625 Y3.1458
G01 X6.0625 Y3.1354
G01 X6.0625 Y3.1250
G01 X6.0729 Y3.1146
G01 X6.0729 Y3.1042
G01 X6.0729 Y3.0938
G01 X6.0833 Y3.0833
G01 X6.0833 Y3.0729
G01 X6.0833 Y3.0625
G01 X6.0833 Y3.0521
G01 X6.0833 Y3.0417
G01 X6.0938 Y3.0312
G01 X6.0938 Y3.0208
G01 X6.0938 Y3.0104
G01 X6.0938 Y3.0000
G01 X6.0938 Y2.9896
G01 X6.1042 Y2.9792
G01 X6.1042 Y2.9688
G01 X6.1042 Y2.9583
G01 X6.1146 Y2.9479
G01 X6.1146 Y2.9375
G01 X6.1250 Y2.9271
G01 X6.1250 Y2.9167
G01 X6.1250 Y2.9062
G01 X6.1354 Y2.8958
G01 X6.1458 Y2.8854
G01 X6.1562 Y2.8750
G01 X6.1562 Y2.8646
G01 X6.1667 Y2.8542
G01 X6.1771 Y2.8438
G01 X6.1771 Y2.8333
G01 X6.1771 Y2.8229
G01 X6.1771 Y2.8125
G01 X6.1875 Y2.8021
G01 X6.1875 Y2.7917
G01 X6.1875 Y2.7812
G01 X6.1979 Y2.7708
G01 X6.1979 Y2.7604
G01 X6.1979 Y2.7500
G01 X6.1979 Y2.7396
G01 X6.1979 Y2.7292
G01 X6.1979 Y2.7188
G01 X6.2083 Y2.7083
G01 X6.2083 Y2.6979
G01 X6.2083 Y2.6875
G01 X6.2083 Y2.6771
G01 X6.2083 Y2.6667
G01 X6.2083 Y2.6562
G01 X6.2188 Y2.6458
G01 X6.2188 Y2.6354
G01 X6.2188 Y2.6250
G01 X6.2292 Y2.6146
G01 X6.2292 Y2.6042
G01 X6.2292 Y2.5938
G01 X6.2292 Y2.5833
G01 X6.2396 Y2.5729
G01 X6.2396 Y2.5625
G01 X6.2396 Y2.5521
G01 X6.2500 Y2.5417
G01 X6.2500 Y2.5312
G01 X6.2500 Y2.5208
G01 X6.2604 Y2.5104
G01 X6.2604 Y2.5000
G01 X6.2604 Y2.4896
G01 X6.2708 Y2.4792
G01 X6.2708 Y2.4688
G01 X6.2708 Y2.4583
G01 X6.2812 Y2.4479
G01 X6.2917 Y2.4375
G01 X6.2812 Y2.4479
G01 X6.2708 Y2.4583
G01 X6.2708 Y2.4688
G01 X6.2708 Y2.4792
G01 X6.2604 Y2.4896
G01 X6.2604 Y2.5000
G01 X6.2604 Y2.5104
G01 X6.2500 Y2.5208
G01 X6.2500 Y2.5312
G01 X6.2500 Y2.5417
G01 X6.2396 Y2.5521
G01 X6.2396 Y2.5625
G01 X6.2396 Y2.5729
G01 X6.2292 Y2.5833
G01 X6.2292 Y2.5938
G01 X6.2292 Y2.6042
G01 X6.2292 Y2.6146
G01 X6.2188 Y2.6250
G01 X6.2188 Y2.6354
G01 X6.2188 Y2.6458
G01 X6.2083 Y2.6562
G01 X6.2083 Y2.6667
G01 X6.2083 Y2.6771
G01 X6.2083 Y2.6875
G01 X6.2083 Y2.6979
G01 X6.2083 Y2.7083
G01 X6.1979 Y2.7188
G01 X6.1979 Y2.7292
G01 X6.1979 Y2.7396
G01 X6.1979 Y2.7500
G01 X6.1979 Y2.7604
G01 X6.1979 Y2.7708
G01 X6.1875 Y2.7812
G01 X6.1875 Y2.7917
G01 X6.1875 Y2.8021
G01 X6.1771 Y2.8125
G01 X6.1771 Y2.8229
G01 X6.1771 Y2.8333
G01 X6.1771 Y2.8438
G01 X6.1667 Y2.8542
G01 X6.1562 Y2.8646
G01 X6.1562 Y2.8750
G01 X6.1458 Y2.8854
G01 X6.1354 Y2.8958
G01 X6.1250 Y2.9062
G01 X6.1250 Y2.9167
G01 X6.1250 Y2.9271
G01 X6.1146 Y2.9375
G01 X6.1146 Y2.9479
G01 X6.1042 Y2.9583
G01 X6.1042 Y2.9688
G01 X6.1042 Y2.9792
G01 X6.0938 Y2.9896
G01 X6.0938 Y3.0000
G01 X6.0938 Y3.0104
G01 X6.0938 Y3.0208
G01 X6.0938 Y3.0312
G01 X6.0833 Y3.0417
G01 X6.0833 Y3.0521
G01 X6.0833 Y3.0625
G01 X6.0833 Y3.0729
G01 X6.0833 Y3.0833
G01 X6.0729 Y3.0938
G01 X6.0729 Y3.1042
G01 X6.0729 Y3.1146
G01 X6.0625 Y3.1250
G01 X6.0625 Y3.1354
G01 X6.0625 Y3.1458
G01 X6.0625 Y3.1562
G01 X6.0625 Y3.1667
G01 X6.0521 Y3.1771
G01 X6.0521 Y3.1875
G01 X6.0521 Y3.1979
G01 X6.0521 Y3.2083
G01 X6.0521 Y3.2188
G01 X6.0521 Y3.2292
G01 X6.0417 Y3.2396
G01 X6.0417 Y3.2500
G01 X6.0417 Y3.2604
G01 X6.0417 Y3.2708
G01 X6.0417 Y3.2812
G01 X6.0417 Y3.2917
G01 X6.0312 Y3.3021
G01 X6.0312 Y3.3125
G01 X6.0312 Y3.3229
G01 X6.0312 Y3.3333
G01 X6.0208 Y3.3438
G01 X6.0208 Y3.3542
G01 X6.0208 Y3.3646
G01 X6.0208 Y3.3750
G01 X6.0208 Y3.3854
G01 X6.0208 Y3.3958
G01 X6.0104 Y3.4062
G01 X6.0104 Y3.4167
G01 X6.0104 Y3.4271
G01 X6.0104 Y3.4375
G01 X6.0000 Y3.4479
G01 X6.0000 Y3.4583
G01 X6.0000 Y3.4688
G01 X6.0000 Y3.4792
G01 X6.0000 Y3.4896
G01 X5.9896 Y3.5000
G01 X5.9896 Y3.5104
G01 X5.9896 Y3.5208
G01 X5.9792 Y3.5312
G01 X5.9792 Y3.5417
G01 X5.9792 Y3.5521
G01 X5.9688 Y3.5625
G01 X5.9583 Y3.5729
G01 X5.9583 Y3.5833
G01 X5.9583 Y3.5938
G01 X5.9479 Y3.6042
G01 X5.9479 Y3.6146
G01 X5.9375 Y3.6250
G01 X5.9375 Y3.6354
G01 X5.9375 Y3.6458
G01 X5.9479 Y3.6562
G01 X5.9479 Y3.6667
G01 X5.9479 Y3.6771
G01 X5.9479 Y3.6875
G01 X5.9479 Y3.6979
G01 X5.9583 Y3.7083
G01 X5.9688 Y3.7188
G00 X6.4688 Y3.6458
G01 X6.4583 Y3.6458
G01 X6.4479 Y3.6458
G01 X6.4375 Y3.6354
G01 X6.4271 Y3.6354
G01 X6.4167 Y3.6354
G01 X6.4062 Y3.6250
G01 X6.3958 Y3.6250
G01 X6.3854 Y3.6146
G01 X6.3750 Y3.6146
G01 X6.3646 Y3.6146
G01 X6.3750 Y3.6146
G01 X6.3854 Y3.6146
G01 X6.3958 Y3.6250
G01 X6.4062 Y3.6250
G01 X6.4167 Y3.6354
G01 X6.4271 Y3.6354
G01 X6.4375 Y3.6354
G01 X6.4479 Y3.6458
G01 X6.4583 Y3.6458
G01 X6.4688 Y3.6458
G01 X6.4792 Y3.6562
G00 X6.5938 Y3.7188
G01 X6.5833 Y3.7083
G01 X6.5729 Y3.7083
G01 X6.5625 Y3.6979
G01 X6.5521 Y3.6979
G01 X6.5417 Y3.6875
G01 X6.5312 Y3.6875
G01 X6.5208 Y3.6771
G01 X6.5312 Y3.6875
G01 X6.5417 Y3.6875
G01 X6.5521 Y3.6979
G01 X6.5625 Y3.6979
G01 X6.5729 Y3.7083
G01 X6.5833 Y3.7083
G01 X6.5938 Y3.7188
G01 X6.6042 Y3.7188
G01 X6.6146 Y3.7188
G01 X6.6250 Y3.7188
G01 X6.6146 Y3.7188
G01 X6.6042 Y3.7188
G00 X6.6458 Y3.7500
G01 X6.6562 Y3.7500
G01 X6.6667 Y3.7500
G01 X6.6771 Y3.7500
G01 X6.6667 Y3.7500
G01 X6.6562 Y3.7500
G00 X6.7812 Y3.6562
G01 X6.7708 Y3.6458
G01 X6.7604 Y3.6458
G01 X6.7500 Y3.6458
G01 X6.7396 Y3.6354
G01 X6.7292 Y3.6354
G01 X6.7188 Y3.6354
G01 X6.7083 Y3.6354
G01 X6.6979 Y3.6250
G01 X6.6875 Y3.6250
G01 X6.6771 Y3.6250
G01 X6.6667 Y3.6250
G01 X6.6562 Y3.6146
G01 X6.6458 Y3.6146
G01 X6.6354 Y3.6146
G01 X6.6250 Y3.6146
G01 X6.6146 Y3.6042
G01 X6.6042 Y3.6042
G01 X6.5938 Y3.6042
G01 X6.5833 Y3.6042
G01 X6.5729 Y3.5938
G01 X6.5625 Y3.5938
G01 X6.5521 Y3.5938
G01 X6.5417 Y3.5938
G01 X6.5312 Y3.5938
G01 X6.5208 Y3.5938
G01 X6.5104 Y3.5833
G01 X6.5000 Y3.5833
G01 X6.4896 Y3.5729
G01 X6.4792 Y3.5833
G01 X6.4688 Y3.5833
G01 X6.4583 Y3.5833
G01 X6.4479 Y3.5833
G01 X6.4583 Y3.5833
G01 X6.4688 Y3.5833
G01 X6.4792 Y3.5833
G01 X6.4896 Y3.5729
G01 X6.5000 Y3.5833
G01 X6.5104 Y3.5833
G01 X6.5208 Y3.5938
G01 X6.5312 Y3.5938
G01 X6.5417 Y3.5938
G01 X6.5521 Y3.5938
G01 X6.5625 Y3.5938
G01 X6.5729 Y3.5938
G01 X6.5833 Y3.6042
G01 X6.5938 Y3.6042
G01 X6.6042 Y3.6042
G01 X6.6146 Y3.6042
G01 X6.6250 Y3.6146
G01 X6.6354 Y3.6146
G01 X6.6458 Y3.6146
G01 X6.6562 Y3.6146
G01 X6.6667 Y3.6250
G01 X6.6771 Y3.6250
G01 X6.6875 Y3.6250
G01 X6.6979 Y3.6250
G01 X6.7083 Y3.6354
G01 X6.7188 Y3.6354
G01 X6.7292 Y3.6354
G01 X6.7396 Y3.6354
G01 X6.7500 Y3.6458
G01 X6.7604 Y3.6458
G01 X6.7708 Y3.6458
G01 X6.7812 Y3.6562
G01 X6.7917 Y3.6562
G00 X4.9688 Y4.2812
G01 X4.9792 Y4.2812
G01 X4.9688 Y4.2812
G01 X4.9583 Y4.2812
G00 X4.9167 Y4.3229
G01 X4.9167 Y4.3125
G01 X4.9167 Y4.3021
G01 X4.9062 Y4.2917
G01 X4.8958 Y4.2812
G01 X4.8854 Y4.2812
G01 X4.8958 Y4.2812
G01 X4.9062 Y4.2917
G01 X4.9167 Y4.3021
G01 X4.9167 Y4.3125
G01 X4.9167 Y4.3229
G01 X4.9271 Y4.3333
G00 X4.8646 Y4.3021
G01 X4.8542 Y4.2917
G01 X4.8542 Y4.2812
G01 X4.8438 Y4.2708
G01 X4.8438 Y4.2604
G01 X4.8333 Y4.2500
G01 X4.8333 Y4.2396
G01 X4.8229 Y4.2292
G01 X4.8125 Y4.2292
G01 X4.8021 Y4.2188
G01 X4.7917 Y4.2188
G01 X4.7812 Y4.2083
G01 X4.7708 Y4.1979
G01 X4.7604 Y4.1979
G01 X4.7500 Y4.1979
G01 X4.7396 Y4.1875
G01 X4.7292 Y4.1875
G01 X4.7188 Y4.1771
G01 X4.7083 Y4.1667
G01 X4.6979 Y4.1562
G01 X4.6875 Y4.1562
G01 X4.6771 Y4.1458
G01 X4.6667 Y4.1354
G01 X4.6562 Y4.1354
G01 X4.6458 Y4.1250
G01 X4.6354 Y4.1146
G01 X4.6250 Y4.1042
G01 X4.6146 Y4.1042
G01 X4.6042 Y4.0938
G01 X4.5938 Y4.0833
G01 X4.5833 Y4.0729
G01 X4.5729 Y4.0625
G01 X4.5729 Y4.0521
G01 X4.5625 Y4.0417
G01 X4.5521 Y4.0312
G01 X4.5521 Y4.0208
G01 X4.5521 Y4.0104
G01 X4.5417 Y4.0000
G01 X4.5417 Y3.9896
G01 X4.5417 Y3.9792
G01 X4.5312 Y3.9688
G01 X4.5312 Y3.9583
G01 X4.5312 Y3.9479
G01 X4.5312 Y3.9375
G01 X4.5208 Y3.9271
G01 X4.5208 Y3.9167
G01 X4.5208 Y3.9062
G01 X4.5104 Y3.8958
G01 X4.5104 Y3.8854
G01 X4.5104 Y3.8750
G01 X4.5104 Y3.8646
G01 X4.5104 Y3.8542
G01 X4.5000 Y3.8438
G01 X4.5000 Y3.8333
G01 X4.5000 Y3.8229
G01 X4.5000 Y3.8125
G01 X4.5000 Y3.8021
G01 X4.5000 Y3.7917
G01 X4.4896 Y3.7812
G01 X4.4896 Y3.7708
G01 X4.4792 Y3.7604
G01 X4.4792 Y3.7500
G01 X4.4792 Y3.7396
G01 X4.4792 Y3.7292
G01 X4.4792 Y3.7188
G01 X4.4792 Y3.7083
G01 X4.4792 Y3.6979
G01 X4.4792 Y3.6875
G01 X4.4792 Y3.6771
G01 X4.4688 Y3.6667
G01 X4.4688 Y3.6562
G01 X4.4688 Y3.6458
G01 X4.4688 Y3.6354
G01 X4.4688 Y3.6250
G01 X4.4688 Y3.6146
G01 X4.4688 Y3.6042
G01 X4.4688 Y3.5938
G01 X4.4583 Y3.5833
G01 X4.4583 Y3.5729
G01 X4.4583 Y3.5625
G01 X4.4583 Y3.5521
G01 X4.4583 Y3.5417
G01 X4.4583 Y3.5312
G01 X4.4583 Y3.5208
G01 X4.4583 Y3.5104
G01 X4.4479 Y3.5000
G01 X4.4479 Y3.4896
G01 X4.4479 Y3.4792
G01 X4.4479 Y3.4688
G01 X4.4479 Y3.4583
G01 X4.4479 Y3.4479
G01 X4.4479 Y3.4375
G01 X4.4479 Y3.4271
G01 X4.4479 Y3.4167
G01 X4.4479 Y3.4062
G01 X4.4479 Y3.3958
G01 X4.4479 Y3.3854
G01 X4.4479 Y3.3750
G01 X4.4479 Y3.3646
G01 X4.4479 Y3.3542
G01 X4.4479 Y3.3438
G01 X4.4479 Y3.3333
G01 X4.4479 Y3.3229
G01 X4.4479 Y3.3125
G01 X4.4479 Y3.3021
G01 X4.4479 Y3.2917
G01 X4.4479 Y3.2812
G01 X4.4479 Y3.2708
G01 X4.4479 Y3.2604
G01 X4.4479 Y3.2500
G01 X4.4479 Y3.2396
G01 X4.4479 Y3.2292
G01 X4.4375 Y3.2188
G01 X4.4375 Y3.2083
G01 X4.4375 Y3.1979
G01 X4.4375 Y3.1875
G01 X4.4375 Y3.1771
G01 X4.4375 Y3.1667
G01 X4.4375 Y3.1562
G01 X4.4375 Y3.1458
G01 X4.4375 Y3.1354
G01 X4.4375 Y3.1250
G01 X4.4375 Y3.1146
G01 X4.4375 Y3.1042
G01 X4.4375 Y3.0938
G01 X4.4375 Y3.0833
G01 X4.4479 Y3.0729
G01 X4.4479 Y3.0625
G01 X4.4479 Y3.0521
G01 X4.4479 Y3.0417
G01 X4.4479 Y3.0312
G01 X4.4479 Y3.0208
G01 X4.4479 Y3.0104
G01 X4.4479 Y3.0000
G01 X4.4479 Y2.9896
G01 X4.4375 Y2.9792
G01 X4.4375 Y2.9688
G01 X4.4271 Y2.9583
G01 X4.4375 Y2.9688
G01 X4.4375 Y2.9792
G01 X4.4479 Y2.9896
G01 X4.4479 Y3.0000
G01 X4.4479 Y3.0104
G01 X4.4479 Y3.0208
G01 X4.4479 Y3.0312
G01 X4.4479 Y3.0417
G01 X4.4479 Y3.0521
G01 X4.4479 Y3.0625
G01 X4.4479 Y3.0729
G01 X4.4375 Y3.0833
G01 X4.4375 Y3.0938
G01 X4.4375 Y3.1042
G01 X4.4375 Y3.1146
G01 X4.4375 Y3.1250
G01 X4.4375 Y3.1354
G01 X4.4375 Y3.1458
G01 X4.4375 Y3.1562
G01 X4.4375 Y3.1667
G01 X4.4375 Y3.1771
G01 X4.4375 Y3.1875
G01 X4.4375 Y3.1979
G01 X4.4375 Y3.2083
G01 X4.4375 Y3.2188
G01 X4.4479 Y3.2292
G01 X4.4479 Y3.2396
G01 X4.4479 Y3.2500
G01 X4.4479 Y3.2604
G01 X4.4479 Y3.2708
G01 X4.4479 Y3.2812
G01 X4.4479 Y3.2917
G01 X4.4479 Y3.3021
G01 X4.4479 Y3.3125
G01 X4.4479 Y3.3229
G01 X4.4479 Y3.3333
G01 X4.4479 Y3.3438
G01 X4.4479 Y3.3542
G01 X4.4479 Y3.3646
G01 X4.4479 Y3.3750
G01 X4.4479 Y3.3854
G01 X4.4479 Y3.3958
G01 X4.4479 Y3.4062
G01 X4.4479 Y3.4167
G01 X4.4479 Y3.4271
G01 X4.4479 Y3.4375
G01 X4.4479 Y3.4479
G01 X4.4479 Y3.4583
G01 X4.4479 Y3.4688
G01 X4.4479 Y3.4792
G01 X4.4479 Y3.4896
G01 X4.4479 Y3.5000
G01 X4.4583 Y3.5104
G01 X4.4583 Y3.5208
G01 X4.4583 Y3.5312
G01 X4.4583 Y3.5417
G01 X4.4583 Y3.5521
G01 X4.4583 Y3.5625
G01 X4.4583 Y3.5729
G01 X4.4583 Y3.5833
G01 X4.4688 Y3.5938
G01 X4.4688 Y3.6042
G01 X4.4688 Y3.6146
G01 X4.4688 Y3.6250
G01 X4.4688 Y3.6354
G01 X4.4688 Y3.6458
G01 X4.4688 Y3.6562
G01 X4.4688 Y3.6667
G01 X4.4792 Y3.6771
G01 X4.4792 Y3.6875
G01 X4.4792 Y3.6979
G01 X4.4792 Y3.7083
G01 X4.4792 Y3.7188
G01 X4.4792 Y3.7292
G01 X4.4792 Y3.7396
G01 X4.4792 Y3.7500
G01 X4.4792 Y3.7604
G01 X4.4896 Y3.7708
G01 X4.4896 Y3.7812
G01 X4.5000 Y3.7917
G01 X4.5000 Y3.8021
G01 X4.5000 Y3.8125
G01 X4.5000 Y3.8229
G01 X4.5000 Y3.8333
G01 X4.5000 Y3.8438
G01 X4.5104 Y3.8542
G01 X4.5104 Y3.8646
G01 X4.5104 Y3.8750
G01 X4.5104 Y3.8854
G01 X4.5104 Y3.8958
G01 X4.5208 Y3.9062
G01 X4.5208 Y3.9167
G01 X4.5208 Y3.9271
G01 X4.5312 Y3.9375
G01 X4.5312 Y3.9479
G01 X4.5312 Y3.9583
G01 X4.5312 Y3.9688
G01 X4.5417 Y3.9792
G01 X4.5417 Y3.9896
G01 X4.5417 Y4.0000
G01 X4.5521 Y4.0104
G01 X4.5521 Y4.0208
G01 X4.5521 Y4.0312
G01 X4.5625 Y4.0417
G01 X4.5729 Y4.0521
G01 X4.5729 Y4.0625
G01 X4.5833 Y4.0729
G01 X4.5938 Y4.0833
G01 X4.6042 Y4.0938
G01 X4.6146 Y4.1042
G01 X4.6250 Y4.1042
G01 X4.6354 Y4.1146
G01 X4.6458 Y4.1250
G01 X4.6562 Y4.1354
G01 X4.6667 Y4.1354
G01 X4.6771 Y4.1458
G01 X4.6875 Y4.1562
G01 X4.6979 Y4.1562
G01 X4.7083 Y4.1667
G01 X4.7188 Y4.1771
G01 X4.7292 Y4.1875
G01 X4.7396 Y4.1875
G01 X4.7500 Y4.1979
G01 X4.7604 Y4.1979
G01 X4.7708 Y4.1979
G01 X4.7812 Y4.2083
G01 X4.7917 Y4.2188
G01 X4.8021 Y4.2188
G01 X4.8125 Y4.2292
G01 X4.8229 Y4.2292
G01 X4.8333 Y4.2396
G01 X4.8333 Y4.2500
G01 X4.8438 Y4.2604
G01 X4.8438 Y4.2708
G01 X4.8542 Y4.2812
G01 X4.8542 Y4.2917
G00 X4.7083 Y4.0625
G01 X4.6979 Y4.0521
G01 X4.6979 Y4.0417
G01 X4.6979 Y4.0312
G01 X4.6979 Y4.0208
G01 X4.6875 Y4.0104
G01 X4.6875 Y4.0000
G01 X4.6771 Y3.9896
G01 X4.6771 Y3.9792
G01 X4.6771 Y3.9688
G01 X4.6771 Y3.9583
G01 X4.6771 Y3.9479
G01 X4.6771 Y3.9375
G01 X4.6667 Y3.9271
G01 X4.6667 Y3.9167
G01 X4.6667 Y3.9062
G01 X4.6667 Y3.8958
G01 X4.6667 Y3.8854
G01 X4.6562 Y3.8750
G01 X4.6562 Y3.8646
G01 X4.6458 Y3.8542
G01 X4.6354 Y3.8542
G01 X4.6250 Y3.8646
G01 X4.6354 Y3.8542
G01 X4.6458 Y3.8542
G01 X4.6562 Y3.8438
G01 X4.6562 Y3.8333
G01 X4.6562 Y3.8229
G01 X4.6562 Y3.8125
G01 X4.6562 Y3.8021
G01 X4.6562 Y3.7917
G01 X4.6458 Y3.7812
G01 X4.6562 Y3.7708
G01 X4.6562 Y3.7604
G01 X4.6562 Y3.7500
G01 X4.6562 Y3.7396
G01 X4.6562 Y3.7292
G01 X4.6562 Y3.7188
G01 X4.6562 Y3.7083
G01 X4.6562 Y3.6979
G01 X4.6562 Y3.6875
G01 X4.6667 Y3.6771
G01 X4.6667 Y3.6667
G01 X4.6667 Y3.6562
G01 X4.6667 Y3.6458
G01 X4.6771 Y3.6354
G01 X4.6771 Y3.6250
G01 X4.6771 Y3.6146
G01 X4.6771 Y3.6042
G01 X4.6771 Y3.5938
G01 X4.6771 Y3.5833
G01 X4.6875 Y3.5729
G01 X4.6875 Y3.5625
G01 X4.6875 Y3.5521
G01 X4.6875 Y3.5417
G01 X4.6875 Y3.5312
G01 X4.6875 Y3.5208
G01 X4.6875 Y3.5104
G01 X4.6875 Y3.5000
G01 X4.6979 Y3.4896
G01 X4.6979 Y3.4792
G01 X4.6979 Y3.4688
G01 X4.7083 Y3.4583
G01 X4.7083 Y3.4479
G01 X4.7083 Y3.4375
G01 X4.7083 Y3.4271
G01 X4.7083 Y3.4167
G01 X4.7083 Y3.4062
G01 X4.7083 Y3.3958
G01 X4.7188 Y3.3854
G01 X4.7188 Y3.3750
G01 X4.7292 Y3.3646
G01 X4.7292 Y3.3542
G01 X4.7292 Y3.3438
G01 X4.7292 Y3.3333
G01 X4.7292 Y3.3229
G01 X4.7396 Y3.3125
G01 X4.7396 Y3.3021
G01 X4.7396 Y3.2917
G01 X4.7500 Y3.2812
G01 X4.7500 Y3.2708
G01 X4.7604 Y3.2604
G01 X4.7604 Y3.2500
G01 X4.7604 Y3.2396
G01 X4.7708 Y3.2292
G01 X4.7708 Y3.2188
G01 X4.7708 Y3.2083
G01 X4.7812 Y3.1979
G01 X4.7812 Y3.1875
G01 X4.7917 Y3.1771
G01 X4.7917 Y3.1667
G01 X4.8021 Y3.1562
G01 X4.8021 Y3.1458
G01 X4.8125 Y3.1354
G01 X4.8125 Y3.1250
G01 X4.8229 Y3.1146
G01 X4.8229 Y3.1042
G01 X4.8229 Y3.0938
G01 X4.8333 Y3.0833
G01 X4.8438 Y3.0729
G01 X4.8438 Y3.0625
G01 X4.8542 Y3.0521
G01 X4.8542 Y3.0417
G01 X4.8646 Y3.0312
G01 X4.8646 Y3.0208
G01 X4.8750 Y3.0104
G01 X4.8854 Y3.0000
G01 X4.8854 Y2.9896
G01 X4.8958 Y2.9792
G01 X4.8958 Y2.9688
G01 X4.9062 Y2.9583
G01 X4.9062 Y2.9479
G01 X4.9167 Y2.9375
G01 X4.9167 Y2.9271
G01 X4.9271 Y2.9167
G01 X4.9375 Y2.9062
G01 X4.9479 Y2.8958
G01 X4.9479 Y2.8854
G01 X4.9583 Y2.8750
G01 X4.9688 Y2.8646
G01 X4.9792 Y2.8542
G01 X4.9792 Y2.8438
G01 X4.9896 Y2.8333
G01 X5.0000 Y2.8229
G01 X5.0000 Y2.8125
G01 X5.0104 Y2.8021
G01 X5.0208 Y2.7917
G01 X5.0208 Y2.7812
G01 X5.0312 Y2.7708
G01 X5.0417 Y2.7604
G01 X5.0521 Y2.7500
G01 X5.0625 Y2.7396
G01 X5.0729 Y2.7292
G01 X5.0833 Y2.7188
G01 X5.0938 Y2.7083
G01 X5.1042 Y2.7083
G01 X5.1146 Y2.6979
G01 X5.1250 Y2.6979
G01 X5.1354 Y2.6979
G01 X5.1458 Y2.6979
G01 X5.1354 Y2.6979
G01 X5.1250 Y2.6979
G01 X5.1146 Y2.6979
G01 X5.1042 Y2.7083
G01 X5.0938 Y2.7083
G01 X5.0833 Y2.7188
G01 X5.0729 Y2.7292
G01 X5.0625 Y2.7396
G01 X5.0521 Y2.7500
G01 X5.0417 Y2.7604
G01 X5.0312 Y2.7708
G01 X5.0208 Y2.7812
G01 X5.0208 Y2.7917
G01 X5.0104 Y2.8021
G01 X5.0000 Y2.8125
G01 X5.0000 Y2.8229
G01 X4.9896 Y2.8333
G01 X4.9792 Y2.8438
G01 X4.9792 Y2.8542
G01 X4.9688 Y2.8646
G01 X4.9583 Y2.8750
G01 X4.9479 Y2.8854
G01 X4.9479 Y2.8958
G01 X4.9375 Y2.9062
G01 X4.9271 Y2.9167
G01 X4.9167 Y2.9271
G01 X4.9167 Y2.9375
G01 X4.9062 Y2.9479
G01 X4.9062 Y2.9583
G01 X4.8958 Y2.9688
G01 X4.8958 Y2.9792
G01 X4.8854 Y2.9896
G01 X4.8854 Y3.0000
G01 X4.8750 Y3.0104
G01 X4.8646 Y3.0208
G01 X4.8646 Y3.0312
G01 X4.8542 Y3.0417
G01 X4.8542 Y3.0521
G01 X4.8438 Y3.0625
G01 X4.8438 Y3.0729
G01 X4.8333 Y3.0833
G01 X4.8229 Y3.0938
G01 X4.8229 Y3.1042
G01 X4.8229 Y3.1146
G01 X4.8125 Y3.1250
G01 X4.8125 Y3.1354
G01 X4.8021 Y3.1458
G01 X4.8021 Y3.1562
G01 X4.7917 Y3.1667
G01 X4.7917 Y3.1771
G01 X4.7812 Y3.1875
G01 X4.7812 Y3.1979
G01 X4.7708 Y3.2083
G01 X4.7708 Y3.2188
G01 X4.7708 Y3.2292
G01 X4.7604 Y3.2396
G01 X4.7604 Y3.2500
G01 X4.7604 Y3.2604
G01 X4.7500 Y3.2708
G01 X4.7500 Y3.2812
G01 X4.7396 Y3.2917
G01 X4.7396 Y3.3021
G01 X4.7396 Y3.3125
G01 X4.7292 Y3.3229
G01 X4.7292 Y3.3333
G01 X4.7292 Y3.3438
G01 X4.7292 Y3.3542
G01 X4.7292 Y3.3646
G01 X4.7188 Y3.3750
G01 X4.7188 Y3.3854
G01 X4.7083 Y3.3958
G01 X4.7083 Y3.4062
G01 X4.7083 Y3.4167
G01 X4.7083 Y3.4271
G01 X4.7083 Y3.4375
G01 X4.7083 Y3.4479
G01 X4.7083 Y3.4583
G01 X4.6979 Y3.4688
G01 X4.6979 Y3.4792
G01 X4.6979 Y3.4896
G01 X4.6875 Y3.5000
G01 X4.6875 Y3.5104
G01 X4.6875 Y3.5208
G01 X4.6875 Y3.5312
G01 X4.6875 Y3.5417
G01 X4.6875 Y3.5521
G01 X4.6875 Y3.5625
G01 X4.6875 Y3.5729
G01 X4.6771 Y3.5833
G01 X4.6771 Y3.5938
G01 X4.6771 Y3.6042
G01 X4.6771 Y3.6146
G01 X4.6771 Y3.6250
G01 X4.6771 Y3.6354
G01 X4.6667 Y3.6458
G01 X4.6667 Y3.6562
G01 X4.6667 Y3.6667
G01 X4.6667 Y3.6771
G01 X4.6562 Y3.6875
G01 X4.6562 Y3.6979
G01 X4.6562 Y3.7083
G01 X4.6562 Y3.7188
G01 X4.6562 Y3.7292
G01 X4.6562 Y3.7396
G01 X4.6562 Y3.7500
G01 X4.6562 Y3.7604
G01 X4.6562 Y3.7708
G01 X4.6458 Y3.7812
G01 X4.6562 Y3.7917
G01 X4.6562 Y3.8021
G01 X4.6562 Y3.8125
G01 X4.6562 Y3.8229
G01 X4.6562 Y3.8333
G01 X4.6562 Y3.8438
G01 X4.6562 Y3.8542
G01 X4.6562 Y3.8646
G01 X4.6562 Y3.8750
G01 X4.6667 Y3.8854
G01 X4.6667 Y3.8958
G01 X4.6667 Y3.9062
G01 X4.6667 Y3.9167
G01 X4.6667 Y3.9271
G01 X4.6771 Y3.9375
G01 X4.6771 Y3.9479
G01 X4.6771 Y3.9583
G01 X4.6771 Y3.9688
G01 X4.6771 Y3.9792
G01 X4.6771 Y3.9896
G01 X4.6875 Y4.0000
G01 X4.6875 Y4.0104
G01 X4.6979 Y4.0208
G01 X4.6979 Y4.0312
G01 X4.6979 Y4.0417
G01 X4.6979 Y4.0521
G00 X5.5729 Y5.5312
G01 X5.5625 Y5.5208
G01 X5.5521 Y5.5208
G01 X5.5417 Y5.5208
G01 X5.5312 Y5.5208
G01 X5.5208 Y5.5208
G01 X5.5104 Y5.5104
G01 X5.5000 Y5.5104
G01 X5.4896 Y5.5000
G01 X5.4792 Y5.5000
G01 X5.4688 Y5.5000
G01 X5.4583 Y5.4896
G01 X5.4479 Y5.4792
G01 X5.4375 Y5.4792
G01 X5.4271 Y5.4792
G01 X5.4167 Y5.4688
G01 X5.4062 Y5.4688
G01 X5.3958 Y5.4583
G01 X5.3854 Y5.4479
G01 X5.3854 Y5.4375
G01 X5.3750 Y5.4271
G01 X5.3646 Y5.4167
G01 X5.3542 Y5.4062
G01 X5.3438 Y5.4062
G01 X5.3333 Y5.3958
G01 X5.3229 Y5.3854
G01 X5.3125 Y5.3854
G01 X5.3021 Y5.3854
G01 X5.2917 Y5.3750
G01 X5.2812 Y5.3750
G01 X5.2708 Y5.3646
G01 X5.2604 Y5.3646
G01 X5.2500 Y5.3542
G01 X5.2396 Y5.3542
G01 X5.2292 Y5.3438
G01 X5.2188 Y5.3333
G01 X5.2083 Y5.3229
G01 X5.1979 Y5.3125
G01 X5.1875 Y5.3125
G01 X5.1771 Y5.3021
G01 X5.1667 Y5.2917
G01 X5.1562 Y5.2812
G01 X5.1458 Y5.2812
G01 X5.1354 Y5.2708
G01 X5.1250 Y5.2604
G01 X5.1146 Y5.2500
G01 X5.1042 Y5.2396
G01 X5.0938 Y5.2292
G01 X5.0833 Y5.2188
G01 X5.0729 Y5.2083
G01 X5.0625 Y5.1979
G01 X5.0625 Y5.1875
G01 X5.0521 Y5.1771
G01 X5.0521 Y5.1667
G01 X5.0417 Y5.1562
G01 X5.0417 Y5.1458
G01 X5.0417 Y5.1354
G01 X5.0417 Y5.1250
G01 X5.0417 Y5.1146
G01 X5.0417 Y5.1042
G01 X5.0417 Y5.0938
G01 X5.0417 Y5.0833
G01 X5.0417 Y5.0729
G01 X5.0417 Y5.0625
G01 X5.0417 Y5.0521
G01 X5.0417 Y5.0417
G01 X5.0417 Y5.0312
G01 X5.0417 Y5.0208
G01 X5.0417 Y5.0104
G01 X5.0417 Y5.0000
G01 X5.0417 Y4.9896
G01 X5.0521 Y4.9792
G01 X5.0521 Y4.9688
G01 X5.0521 Y4.9583
G01 X5.0521 Y4.9479
G01 X5.0521 Y4.9375
G01 X5.0521 Y4.9271
G01 X5.0521 Y4.9167
G01 X5.0521 Y4.9062
G01 X5.0521 Y4.8958
G01 X5.0521 Y4.8854
G01 X5.0521 Y4.8750
G01 X5.0625 Y4.8646
G01 X5.0625 Y4.8542
G01 X5.0625 Y4.8438
G01 X5.0625 Y4.8333
G01 X5.0625 Y4.8229
G01 X5.0625 Y4.8125
G01 X5.0625 Y4.8021
G01 X5.0625 Y4.7917
G01 X5.0729 Y4.7812
G01 X5.0729 Y4.7708
G01 X5.0833 Y4.7604
G01 X5.0938 Y4.7500
G01 X5.1042 Y4.7396
G01 X5.1146 Y4.7292
G01 X5.1250 Y4.7188
G01 X5.1354 Y4.7083
G01 X5.1354 Y4.6979
G01 X5.1458 Y4.6875
G01 X5.1458 Y4.6771
G01 X5.1562 Y4.6667
G01 X5.1562 Y4.6562
G01 X5.1562 Y4.6458
G01 X5.1562 Y4.6354
G01 X5.1562 Y4.6250
G01 X5.1562 Y4.6146
G01 X5.1562 Y4.6042
G01 X5.1562 Y4.5938
G01 X5.1458 Y4.5833
G01 X5.1354 Y4.5729
G01 X5.1354 Y4.5625
G01 X5.1250 Y4.5521
G01 X5.1250 Y4.5417
G01 X5.1146 Y4.5312
G01 X5.1146 Y4.5208
G01 X5.1042 Y4.5104
G01 X5.0938 Y4.5000
G01 X5.0938 Y4.4896
G01 X5.0833 Y4.4792
G01 X5.0833 Y4.4688
G01 X5.0729 Y4.4583
G01 X5.0729 Y4.4479
G01 X5.0625 Y4.4375
G01 X5.0521 Y4.4271
G01 X5.0521 Y4.4167
G01 X5.0417 Y4.4062
G01 X5.0417 Y4.3958
G01 X5.0312 Y4.3854
G01 X5.0312 Y4.3750
G01 X5.0312 Y4.3646
G01 X5.0312 Y4.3542
G01 X5.0417 Y4.3438
G01 X5.0312 Y4.3333
G01 X5.0312 Y4.3229
G01 X5.0312 Y4.3333
G01 X5.0417 Y4.3438
G01 X5.0521 Y4.3438
G01 X5.0625 Y4.3438
G01 X5.0729 Y4.3438
G01 X5.0833 Y4.3438
G01 X5.0938 Y4.3438
G01 X5.1042 Y4.3438
G01 X5.1146 Y4.3438
G01 X5.1250 Y4.3542
G01 X5.1354 Y4.3542
G01 X5.1458 Y4.3542
G01 X5.1562 Y4.3542
G01 X5.1667 Y4.3438
G01 X5.1771 Y4.3438
G01 X5.1875 Y4.3438
G01 X5.1979 Y4.3438
G01 X5.2083 Y4.3438
G01 X5.2188 Y4.3438
G01 X5.2292 Y4.3438
G01 X5.2396 Y4.3438
G01 X5.2500 Y4.3438
G01 X5.2604 Y4.3438
G01 X5.2708 Y4.3438
G01 X5.2812 Y4.3438
G01 X5.2917 Y4.3438
G01 X5.3021 Y4.3438
G01 X5.3125 Y4.3333
G01 X5.3229 Y4.3333
G01 X5.3333 Y4.3333
G01 X5.3438 Y4.3333
G01 X5.3542 Y4.3333
G01 X5.3646 Y4.3333
G01 X5.3750 Y4.3333
G01 X5.3854 Y4.3229
G01 X5.3958 Y4.3229
G01 X5.4062 Y4.3229
G01 X5.4167 Y4.3229
G01 X5.4271 Y4.3229
G01 X5.4375 Y4.3229
G01 X5.4479 Y4.3125
G01 X5.4583 Y4.3125
G01 X5.4688 Y4.3125
G01 X5.4792 Y4.3021
G01 X5.4896 Y4.2917
G01 X5.5000 Y4.2917
G01 X5.5104 Y4.2917
G01 X5.5208 Y4.2812
G01 X5.5312 Y4.2812
G01 X5.5417 Y4.2812
G01 X5.5521 Y4.2812
G01 X5.5625 Y4.2708
G01 X5.5729 Y4.2604
G01 X5.5833 Y4.2500
G01 X5.5938 Y4.2396
G01 X5.6042 Y4.2292
G01 X5.6146 Y4.2292
G01 X5.6250 Y4.2292
G01 X5.6354 Y4.2188
G01 X5.6458 Y4.2188
G01 X5.6562 Y4.2188
G01 X5.6667 Y4.2083
G01 X5.6771 Y4.2083
G01 X5.6875 Y4.2083
G01 X5.6979 Y4.1979
G01 X5.7083 Y4.1979
G01 X5.7188 Y4.1979
G01 X5.7292 Y4.1875
G01 X5.7396 Y4.1875
G01 X5.7500 Y4.1875
G01 X5.7604 Y4.1771
G01 X5.7708 Y4.1771
G01 X5.7812 Y4.1771
G01 X5.7917 Y4.1667
G01 X5.8021 Y4.1667
G01 X5.8125 Y4.1667
G01 X5.8229 Y4.1562
G01 X5.8333 Y4.1562
G01 X5.8438 Y4.1458
G01 X5.8542 Y4.1458
G01 X5.8646 Y4.1354
G01 X5.8750 Y4.1354
G01 X5.8854 Y4.1250
G01 X5.8958 Y4.1250
G01 X5.9062 Y4.1146
G01 X5.9167 Y4.1146
G01 X5.9271 Y4.1042
G01 X5.9375 Y4.1042
G01 X5.9479 Y4.0938
G01 X5.9583 Y4.0833
G01 X5.9688 Y4.0833
G01 X5.9792 Y4.0729
G01 X5.9896 Y4.0625
G01 X6.0000 Y4.0625
G01 X6.0104 Y4.0521
G01 X6.0208 Y4.0417
G01 X6.0312 Y4.0417
G01 X6.0417 Y4.0312
G01 X6.0521 Y4.0208
G01 X6.0625 Y4.0104
G01 X6.0729 Y4.0000
G01 X6.0833 Y3.9896
G01 X6.0938 Y3.9792
G01 X6.1042 Y3.9688
G01 X6.1146 Y3.9583
G01 X6.1146 Y3.9479
G01 X6.1250 Y3.9375
G01 X6.1250 Y3.9271
G01 X6.1354 Y3.9167
G01 X6.1354 Y3.9062
G01 X6.1458 Y3.8958
G01 X6.1458 Y3.8854
G01 X6.1562 Y3.8750
G01 X6.1562 Y3.8646
G01 X6.1667 Y3.8542
G01 X6.1667 Y3.8438
G01 X6.1667 Y3.8333
G01 X6.1667 Y3.8229
G01 X6.1667 Y3.8125
G01 X6.1771 Y3.8021
G01 X6.1667 Y3.7917
G01 X6.1562 Y3.7917
G01 X6.1458 Y3.7812
G01 X6.1354 Y3.7812
G01 X6.1250 Y3.7812
G01 X6.1146 Y3.7708
G01 X6.1042 Y3.7708
G01 X6.0938 Y3.7708
G01 X6.0833 Y3.7708
G01 X6.0729 Y3.7708
G01 X6.0625 Y3.7604
G01 X6.0521 Y3.7604
G01 X6.0417 Y3.7604
G01 X6.0521 Y3.7604
G01 X6.0625 Y3.7604
G01 X6.0729 Y3.7708
G01 X6.0833 Y3.7708
G01 X6.0938 Y3.7708
G01 X6.1042 Y3.7708
G01 X6.1146 Y3.7708
G01 X6.1250 Y3.7812
G01 X6.1354 Y3.7812
G01 X6.1458 Y3.7812
G01 X6.1562 Y3.7917
G01 X6.1667 Y3.7917
G01 X6.1771 Y3.7917
G01 X6.1875 Y3.7812
G01 X6.1875 Y3.7708
G01 X6.1875 Y3.7604
G01 X6.1875 Y3.7500
G01 X6.1875 Y3.7396
G01 X6.1979 Y3.7292
G01 X6.1979 Y3.7188
G01 X6.1979 Y3.7083
G01 X6.1979 Y3.6979
G01 X6.1979 Y3.6875
G01 X6.1979 Y3.6771
G01 X6.2083 Y3.6667
G01 X6.2083 Y3.6562
G01 X6.2083 Y3.6458
G01 X6.2188 Y3.6354
G01 X6.2188 Y3.6250
G01 X6.2188 Y3.6146
G01 X6.2188 Y3.6042
G01 X6.2188 Y3.5938
G01 X6.2188 Y3.5833
G01 X6.2188 Y3.5729
G01 X6.2188 Y3.5625
G01 X6.2188 Y3.5521
G01 X6.2292 Y3.5417
G01 X6.2292 Y3.5312
G01 X6.2292 Y3.5208
G01 X6.2292 Y3.5104
G01 X6.2292 Y3.5000
G01 X6.2292 Y3.4896
G01 X6.2188 Y3.4792
G01 X6.2188 Y3.4688
G01 X6.2292 Y3.4583
G01 X6.2292 Y3.4479
G01 X6.2292 Y3.4375
G01 X6.2292 Y3.4271
G01 X6.2292 Y3.4167
G01 X6.2292 Y3.4062
G01 X6.2188 Y3.3958
G01 X6.2188 Y3.3854
G01 X6.2188 Y3.3750
G01 X6.2292 Y3.3646
G01 X6.2292 Y3.3542
G01 X6.2292 Y3.3438
G01 X6.2292 Y3.3333
G01 X6.2292 Y3.3229
G01 X6.2396 Y3.3125
G01 X6.2396 Y3.3021
G01 X6.2396 Y3.2917
G01 X6.2500 Y3.2812
G01 X6.2500 Y3.2708
G01 X6.2604 Y3.2604
G01 X6.2604 Y3.2500
G01 X6.2708 Y3.2396
G01 X6.2708 Y3.2292
G01 X6.2812 Y3.2188
G01 X6.2812 Y3.2083
G01 X6.2812 Y3.1979
G01 X6.2812 Y3.1875
G01 X6.2917 Y3.1771
G01 X6.2917 Y3.1667
G01 X6.2917 Y3.1562
G01 X6.2917 Y3.1458
G01 X6.2917 Y3.1354
G01 X6.3021 Y3.1250
G01 X6.3021 Y3.1146
G01 X6.3021 Y3.1042
G01 X6.3021 Y3.0938
G01 X6.3021 Y3.0833
G01 X6.3021 Y3.0729
G01 X6.3021 Y3.0625
G01 X6.3021 Y3.0521
G01 X6.3125 Y3.0417
G01 X6.3125 Y3.0312
G01 X6.3125 Y3.0208
G01 X6.3229 Y3.0104
G01 X6.3229 Y3.0000
G01 X6.3229 Y2.9896
G01 X6.3229 Y3.0000
G01 X6.3229 Y3.0104
G01 X6.3125 Y3.0208
G01 X6.3125 Y3.0312
G01 X6.3125 Y3.0417
G01 X6.3021 Y3.0521
G01 X6.3021 Y3.0625
G01 X6.3021 Y3.0729
G01 X6.3021 Y3.0833
G01 X6.3021 Y3.0938
G01 X6.3021 Y3.1042
G01 X6.3021 Y3.1146
G01 X6.3021 Y3.1250
G01 X6.2917 Y3.1354
G01 X6.2917 Y3.1458
G01 X6.2917 Y3.1562
G01 X6.2917 Y3.1667
G01 X6.2917 Y3.1771
G01 X6.2812 Y3.1875
G01 X6.2812 Y3.1979
G01 X6.2812 Y3.2083
G01 X6.2812 Y3.2188
G01 X6.2708 Y3.2292
G01 X6.2708 Y3.2396
G01 X6.2604 Y3.2500
G01 X6.2604 Y3.2604
G01 X6.2500 Y3.2708
G01 X6.2500 Y3.2812
G01 X6.2396 Y3.2917
G01 X6.2396 Y3.3021
G01 X6.2396 Y3.3125
G01 X6.2292 Y3.3229
G01 X6.2292 Y3.3333
G01 X6.2292 Y3.3438
G01 X6.2292 Y3.3542
G01 X6.2292 Y3.3646
G01 X6.2188 Y3.3750
G01 X6.2188 Y3.3854
G01 X6.2188 Y3.3958
G01 X6.2292 Y3.4062
G01 X6.2292 Y3.4167
G01 X6.2292 Y3.4271
G01 X6.2292 Y3.4375
G01 X6.2292 Y3.4479
G01 X6.2292 Y3.4583
G01 X6.2188 Y3.4688
G01 X6.2188 Y3.4792
G01 X6.2292 Y3.4896
G01 X6.2292 Y3.5000
G01 X6.2292 Y3.5104
G01 X6.2292 Y3.5208
G01 X6.2292 Y3.5312
G01 X6.2292 Y3.5417
G01 X6.2188 Y3.5521
G01 X6.2188 Y3.5625
G01 X6.2188 Y3.5729
G01 X6.2188 Y3.5833
G01 X6.2188 Y3.5938
G01 X6.2188 Y3.6042
G01 X6.2188 Y3.6146
G01 X6.2188 Y3.6250
G01 X6.2188 Y3.6354
G01 X6.2083 Y3.6458
G01 X6.2083 Y3.6562
G01 X6.2083 Y3.6667
G01 X6.1979 Y3.6771
G01 X6.1979 Y3.6875
G01 X6.1979 Y3.6979
G01 X6.1979 Y3.7083
G01 X6.1979 Y3.7188
G01 X6.1979 Y3.7292
G01 X6.1875 Y3.7396
G01 X6.1875 Y3.7500
G01 X6.1875 Y3.7604
G01 X6.1875 Y3.7708
G01 X6.1875 Y3.7812
G01 X6.1875 Y3.7917
G01 X6.1875 Y3.8021
G01 X6.1979 Y3.8125
G01 X6.2083 Y3.8125
G01 X6.2188 Y3.8125
G01 X6.2292 Y3.8125
G01 X6.2396 Y3.8229
G01 X6.2500 Y3.8229
G01 X6.2604 Y3.8229
G01 X6.2708 Y3.8333
G01 X6.2812 Y3.8333
G01 X6.2917 Y3.8333
G01 X6.3021 Y3.8438
G01 X6.3125 Y3.8438
G01 X6.3229 Y3.8438
G01 X6.3333 Y3.8542
G01 X6.3438 Y3.8646
G01 X6.3542 Y3.8646
G01 X6.3646 Y3.8646
G01 X6.3750 Y3.8646
G01 X6.3854 Y3.8646
G01 X6.3958 Y3.8646
G01 X6.4062 Y3.8646
G01 X6.4167 Y3.8750
G01 X6.4271 Y3.8750
G01 X6.4375 Y3.8750
G01 X6.4479 Y3.8854
G01 X6.4583 Y3.8854
G01 X6.4688 Y3.8854
G01 X6.4792 Y3.8854
G01 X6.4896 Y3.8854
G01 X6.5000 Y3.8854
G01 X6.5104 Y3.8854
G01 X6.5208 Y3.8958
G01 X6.5312 Y3.8958
G01 X6.5417 Y3.8854
G01 X6.5521 Y3.8750
G01 X6.5625 Y3.8646
G01 X6.5729 Y3.8542
G01 X6.5833 Y3.8542
G01 X6.5938 Y3.8542
G01 X6.6042 Y3.8542
G01 X6.6146 Y3.8438
G01 X6.6250 Y3.8438
G01 X6.6354 Y3.8438
G01 X6.6458 Y3.8333
G01 X6.6562 Y3.8333
G01 X6.6667 Y3.8333
G01 X6.6771 Y3.8333
G01 X6.6875 Y3.8229
G01 X6.6979 Y3.8125
G01 X6.7083 Y3.8125
G01 X6.7188 Y3.8021
G01 X6.7292 Y3.8021
G01 X6.7396 Y3.7917
G01 X6.7500 Y3.7917
G01 X6.7604 Y3.7812
G01 X6.7708 Y3.7812
G01 X6.7812 Y3.7812
G01 X6.7917 Y3.7812
G01 X6.8021 Y3.7812
G01 X6.8125 Y3.7812
G01 X6.8229 Y3.7708
G01 X6.8229 Y3.7604
G01 X6.8229 Y3.7500
G01 X6.8125 Y3.7396
G01 X6.8021 Y3.7396
G01 X6.8125 Y3.7396
G01 X6.8229 Y3.7500
G01 X6.8229 Y3.7604
G01 X6.8229 Y3.7708
G01 X6.8333 Y3.7812
G01 X6.8438 Y3.7917
G01 X6.8542 Y3.8021
G01 X6.8542 Y3.8125
G01 X6.8646 Y3.8229
G01 X6.8750 Y3.8229
G01 X6.8854 Y3.8229
G01 X6.8958 Y3.8229
G01 X6.9062 Y3.8229
G01 X6.9167 Y3.8125
G01 X6.9271 Y3.8125
G01 X6.9375 Y3.8125
G01 X6.9479 Y3.8125
G01 X6.9583 Y3.8021
G01 X6.9583 Y3.7917
G01 X6.9583 Y3.7812
G01 X6.9583 Y3.7708
G01 X6.9583 Y3.7604
G01 X6.9583 Y3.7500
G01 X6.9479 Y3.7396
G01 X6.9479 Y3.7292
G01 X6.9375 Y3.7188
G01 X6.9271 Y3.7188
G01 X6.9167 Y3.7188
G01 X6.9062 Y3.7083
G01 X6.8958 Y3.7083
G01 X6.8854 Y3.6979
G01 X6.8750 Y3.6979
G01 X6.8646 Y3.6979
G01 X6.8542 Y3.6875
G01 X6.8438 Y3.6771
G01 X6.8333 Y3.6771
G01 X6.8438 Y3.6771
G01 X6.8542 Y3.6875
G01 X6.8646 Y3.6979
G01 X6.8750 Y3.6979
G01 X6.8854 Y3.6979
G01 X6.8958 Y3.7083
G01 X6.9062 Y3.7083
G01 X6.9167 Y3.7188
G01 X6.9271 Y3.7188
G01 X6.9375 Y3.7188
G01 X6.9479 Y3.7292
G01 X6.9479 Y3.7396
G01 X6.9583 Y3.7500
G01 X6.9583 Y3.7604
G01 X6.9583 Y3.7708
G01 X6.9583 Y3.7812
G01 X6.9583 Y3.7917
G01 X6.9583 Y3.8021
G01 X6.9583 Y3.8125
G01 X6.9583 Y3.8229
G01 X6.9583 Y3.8333
G01 X6.9583 Y3.8438
G01 X6.9583 Y3.8542
G01 X6.9583 Y3.8646
G01 X6.9583 Y3.8750
G01 X6.9583 Y3.8854
G01 X6.9583 Y3.8958
G01 X6.9583 Y3.9062
G01 X6.9583 Y3.9167
G01 X6.9583 Y3.9271
G01 X6.9583 Y3.9375
G01 X6.9583 Y3.9479
G01 X6.9583 Y3.9583
G01 X6.9688 Y3.9688
G01 X6.9688 Y3.9792
G01 X6.9688 Y3.9896
G01 X6.9688 Y4.0000
G01 X6.9688 Y4.0104
G01 X6.9688 Y4.0208
G01 X6.9688 Y4.0312
G01 X6.9688 Y4.0417
G01 X6.9688 Y4.0521
G01 X6.9688 Y4.0625
G01 X6.9688 Y4.0729
G01 X6.9688 Y4.0833
G01 X6.9688 Y4.0938
G01 X6.9688 Y4.1042
G01 X6.9688 Y4.1146
G01 X6.9792 Y4.1250
G01 X6.9792 Y4.1354
G01 X6.9792 Y4.1458
G01 X6.9792 Y4.1562
G01 X6.9792 Y4.1667
G01 X6.9792 Y4.1771
G01 X6.9792 Y4.1875
G01 X6.9792 Y4.1979
G01 X6.9792 Y4.2083
G01 X6.9792 Y4.2188
G01 X6.9792 Y4.2292
G01 X6.9792 Y4.2396
G01 X6.9792 Y4.2500
G01 X6.9792 Y4.2604
G01 X6.9792 Y4.2708
G01 X6.9792 Y4.2812
G01 X6.9896 Y4.2917
G01 X6.9896 Y4.3021
G01 X6.9896 Y4.3125
G01 X6.9896 Y4.3229
G01 X6.9896 Y4.3333
G01 X6.9896 Y4.3438
G01 X6.9896 Y4.3542
G01 X6.9896 Y4.3646
G01 X6.9896 Y4.3750
G01 X7.0000 Y4.3854
G01 X7.0000 Y4.3958
G01 X7.0000 Y4.4062
G01 X7.0000 Y4.4167
G01 X7.0000 Y4.4271
G01 X7.0104 Y4.4375
G01 X7.0104 Y4.4479
G01 X7.0104 Y4.4583
G01 X7.0104 Y4.4688
G01 X7.0104 Y4.4792
G01 X7.0208 Y4.4896
G01 X7.0208 Y4.5000
G01 X7.0208 Y4.5104
G01 X7.0208 Y4.5208
G01 X7.0208 Y4.5312
G01 X7.0208 Y4.5417
G01 X7.0208 Y4.5521
G01 X7.0208 Y4.5625
G01 X7.0208 Y4.5729
G01 X7.0208 Y4.5833
G01 X7.0312 Y4.5938
G01 X7.0208 Y4.5833
G01 X7.0104 Y4.5833
G01 X7.0000 Y4.5833
G01 X6.9896 Y4.5729
G01 X6.9792 Y4.5729
G01 X6.9688 Y4.5729
G01 X6.9583 Y4.5625
G01 X6.9479 Y4.5625
G01 X6.9375 Y4.5625
G01 X6.9271 Y4.5625
G01 X6.9167 Y4.5625
G01 X6.9062 Y4.5729
G01 X6.8958 Y4.5729
G01 X6.8854 Y4.5729
G01 X6.8750 Y4.5729
G01 X6.8646 Y4.5833
G01 X6.8542 Y4.5833
G01 X6.8438 Y4.5833
G01 X6.8333 Y4.5938
G01 X6.8229 Y4.5938
G01 X6.8125 Y4.5938
G01 X6.8021 Y4.5938
G01 X6.7917 Y4.5938
G01 X6.7812 Y4.6042
G01 X6.7708 Y4.6042
G01 X6.7604 Y4.6042
G01 X6.7500 Y4.6146
G01 X6.7396 Y4.6146
G01 X6.7292 Y4.6146
G01 X6.7188 Y4.6250
G01 X6.7083 Y4.6250
G01 X6.6979 Y4.6250
G01 X6.6875 Y4.6354
G01 X6.6771 Y4.6354
G01 X6.6667 Y4.6354
G01 X6.6562 Y4.6354
G01 X6.6458 Y4.6458
G01 X6.6354 Y4.6458
G01 X6.6250 Y4.6458
G01 X6.6146 Y4.6458
G01 X6.6042 Y4.6458
G01 X6.5938 Y4.6562
G01 X6.5833 Y4.6562
G01 X6.5729 Y4.6562
G01 X6.5625 Y4.6667
G01 X6.5521 Y4.6667
G01 X6.5417 Y4.6667
G01 X6.5312 Y4.6667
G01 X6.5208 Y4.6667
G01 X6.5104 Y4.6667
G01 X6.5000 Y4.6667
G01 X6.4896 Y4.6667
G01 X6.4792 Y4.6667
G01 X6.4688 Y4.6562
G01 X6.4688 Y4.6458
G01 X6.4688 Y4.6354
G01 X6.4688 Y4.6250
G01 X6.4688 Y4.6146
G01 X6.4688 Y4.6042
G01 X6.4688 Y4.5938
G01 X6.4688 Y4.5833
G01 X6.4688 Y4.5729
G01 X6.4688 Y4.5625
G01 X6.4792 Y4.5521
G01 X6.4792 Y4.5417
G01 X6.4792 Y4.5312
G01 X6.4792 Y4.5208
G01 X6.4792 Y4.5104
G01 X6.4792 Y4.5000
G01 X6.4792 Y4.4896
G01 X6.4896 Y4.4792
G01 X6.4896 Y4.4688
G01 X6.4896 Y4.4583
G01 X6.4896 Y4.4479
G01 X6.4896 Y4.4375
G01 X6.4896 Y4.4271
G01 X6.4896 Y4.4167
G01 X6.4896 Y4.4062
G01 X6.5000 Y4.3958
G01 X6.5000 Y4.3854
G01 X6.5000 Y4.3750
G01 X6.5000 Y4.3646
G01 X6.5000 Y4.3542
G01 X6.5000 Y4.3438
G01 X6.5000 Y4.3333
G01 X6.5000 Y4.3229
G01 X6.5000 Y4.3125
G01 X6.5000 Y4.3021
G01 X6.5000 Y4.2917
G01 X6.5000 Y4.2812
G01 X6.5000 Y4.2708
G01 X6.5000 Y4.2604
G01 X6.5104 Y4.2500
G01 X6.5104 Y4.2396
G01 X6.5104 Y4.2292
G01 X6.5208 Y4.2188
G01 X6.5208 Y4.2083
G01 X6.5208 Y4.1979
G01 X6.5208 Y4.1875
G01 X6.5208 Y4.1771
G01 X6.5208 Y4.1667
G01 X6.5208 Y4.1562
G01 X6.5208 Y4.1458
G01 X6.5208 Y4.1354
G01 X6.5312 Y4.1250
G01 X6.5312 Y4.1146
G01 X6.5312 Y4.1042
G01 X6.5312 Y4.0938
G01 X6.5312 Y4.0833
G01 X6.5208 Y4.0729
G01 X6.5208 Y4.0625
G01 X6.5208 Y4.0521
G01 X6.5208 Y4.0417
G01 X6.5208 Y4.0312
G01 X6.5208 Y4.0208
G01 X6.5208 Y4.0104
G01 X6.5208 Y4.0000
G01 X6.5208 Y3.9896
G01 X6.5208 Y3.9792
G01 X6.5208 Y3.9688
G01 X6.5208 Y3.9583
G01 X6.5208 Y3.9479
G01 X6.5208 Y3.9375
G01 X6.5208 Y3.9271
G01 X6.5208 Y3.9167
G01 X6.5208 Y3.9062
G01 X6.5208 Y3.8958
G01 X6.5104 Y3.8854
G01 X6.5000 Y3.8854
G01 X6.4896 Y3.8854
G01 X6.4792 Y3.8854
G01 X6.4688 Y3.8854
G01 X6.4583 Y3.8854
G01 X6.4479 Y3.8854
G01 X6.4375 Y3.8750
G01 X6.4271 Y3.8750
G01 X6.4167 Y3.8750
G01 X6.4062 Y3.8646
G01 X6.3958 Y3.8646
G01 X6.3854 Y3.8646
G01 X6.3750 Y3.8646
G01 X6.3646 Y3.8646
G01 X6.3542 Y3.8646
G01 X6.3438 Y3.8646
G01 X6.3333 Y3.8646
G01 X6.3229 Y3.8750
G01 X6.3125 Y3.8854
G01 X6.3021 Y3.8854
G01 X6.2917 Y3.8750
G01 X6.2812 Y3.8750
G01 X6.2708 Y3.8750
G01 X6.2604 Y3.8750
G01 X6.2500 Y3.8750
G01 X6.2604 Y3.8750
G01 X6.2708 Y3.8750
G01 X6.2812 Y3.8750
G01 X6.2917 Y3.8750
G01 X6.3021 Y3.8854
G01 X6.3125 Y3.8854
G01 X6.3229 Y3.8750
G01 X6.3333 Y3.8646
G01 X6.3333 Y3.8542
G01 X6.3229 Y3.8438
G01 X6.3125 Y3.8438
G01 X6.3021 Y3.8438
G01 X6.2917 Y3.8333
G01 X6.2812 Y3.8333
G01 X6.2708 Y3.8333
G01 X6.2604 Y3.8229
G01 X6.2500 Y3.8229
G01 X6.2396 Y3.8229
G01 X6.2292 Y3.8125
G01 X6.2188 Y3.8125
G01 X6.2083 Y3.8125
G01 X6.1979 Y3.8125
G01 X6.1875 Y3.8021
G01 X6.1771 Y3.8021
G01 X6.1667 Y3.8125
G01 X6.1667 Y3.8229
G01 X6.1667 Y3.8333
G01 X6.1667 Y3.8438
G01 X6.1667 Y3.8542
G01 X6.1562 Y3.8646
G01 X6.1562 Y3.8750
G01 X6.1458 Y3.8854
G01 X6.1458 Y3.8958
G01 X6.1354 Y3.9062
G01 X6.1354 Y3.9167
G01 X6.1250 Y3.9271
G01 X6.1250 Y3.9375
G01 X6.1146 Y3.9479
G01 X6.1146 Y3.9583
G01 X6.1042 Y3.9688
G01 X6.0938 Y3.9792
G01 X6.0833 Y3.9896
G01 X6.0729 Y4.0000
G01 X6.0625 Y4.0104
G01 X6.0521 Y4.0208
G01 X6.0417 Y4.0312
G01 X6.0312 Y4.0417
G01 X6.0208 Y4.0417
G01 X6.0104 Y4.0521
G01 X6.0000 Y4.0625
G01 X5.9896 Y4.0625
G01 X5.9792 Y4.0729
G01 X5.9688 Y4.0833
G01 X5.9583 Y4.0833
G01 X5.9479 Y4.0938
G01 X5.9375 Y4.1042
G01 X5.9271 Y4.1042
G01 X5.9167 Y4.1146
G01 X5.9062 Y4.1146
G01 X5.8958 Y4.1250
G01 X5.8854 Y4.1250
G01 X5.8750 Y4.1354
G01 X5.8646 Y4.1354
G01 X5.8542 Y4.1458
G01 X5.8438 Y4.1458
G01 X5.8333 Y4.1562
G01 X5.8229 Y4.1562
G01 X5.8125 Y4.1667
G01 X5.8021 Y4.1667
G01 X5.7917 Y4.1667
G01 X5.7812 Y4.1771
G01 X5.7708 Y4.1771
G01 X5.7604 Y4.1771
G01 X5.7500 Y4.1875
G01 X5.7396 Y4.1875
G01 X5.7292 Y4.1875
G01 X5.7188 Y4.1979
G01 X5.7083 Y4.1979
G01 X5.6979 Y4.1979
G01 X5.6875 Y4.2083
G01 X5.6771 Y4.2083
G01 X5.6667 Y4.2083
G01 X5.6562 Y4.2188
G01 X5.6458 Y4.2188
G01 X5.6354 Y4.2188
G01 X5.6250 Y4.2292
G01 X5.6146 Y4.2292
G01 X5.6042 Y4.2292
G01 X5.5938 Y4.2396
G01 X5.5833 Y4.2500
G01 X5.5729 Y4.2604
G01 X5.5729 Y4.2708
G01 X5.5833 Y4.2812
G01 X5.5938 Y4.2917
G01 X5.6042 Y4.2917
G01 X5.6146 Y4.2917
G01 X5.6250 Y4.2812
G01 X5.6354 Y4.2812
G01 X5.6458 Y4.2812
G01 X5.6562 Y4.2812
G01 X5.6667 Y4.2812
G01 X5.6771 Y4.2812
G01 X5.6875 Y4.2812
G01 X5.6979 Y4.2917
G01 X5.7083 Y4.2917
G01 X5.7188 Y4.2917
G01 X5.7292 Y4.3021
G01 X5.7396 Y4.3021
G01 X5.7500 Y4.3125
G01 X5.7604 Y4.3125
G01 X5.7708 Y4.3229
G01 X5.7812 Y4.3229
G01 X5.7917 Y4.3333
G01 X5.8021 Y4.3333
G01 X5.8125 Y4.3438
G01 X5.8229 Y4.3542
G01 X5.8333 Y4.3542
G01 X5.8438 Y4.3542
G01 X5.8542 Y4.3646
G01 X5.8646 Y4.3646
G01 X5.8750 Y4.3646
G01 X5.8854 Y4.3646
G01 X5.8958 Y4.3646
G01 X5.9062 Y4.3646
G01 X5.9167 Y4.3646
G01 X5.9271 Y4.3646
G01 X5.9375 Y4.3646
G01 X5.9479 Y4.3646
G01 X5.9583 Y4.3750
G01 X5.9688 Y4.3750
G01 X5.9792 Y4.3750
G01 X5.9896 Y4.3854
G01 X6.0000 Y4.3854
G01 X6.0104 Y4.3958
G01 X6.0208 Y4.3958
G01 X6.0312 Y4.4062
G01 X6.0417 Y4.4167
G01 X6.0417 Y4.4271
G01 X6.0521 Y4.4375
G01 X6.0521 Y4.4479
G01 X6.0625 Y4.4583
G01 X6.0625 Y4.4688
G01 X6.0625 Y4.4792
G01 X6.0729 Y4.4896
G01 X6.0729 Y4.5000
G01 X6.0729 Y4.5104
G01 X6.0729 Y4.5208
G01 X6.0833 Y4.5312
G01 X6.0833 Y4.5417
G01 X6.0833 Y4.5521
G01 X6.0833 Y4.5625
G01 X6.0833 Y4.5729
G01 X6.0833 Y4.5833
G01 X6.0833 Y4.5938
G01 X6.0833 Y4.6042
G01 X6.0833 Y4.6146
G01 X6.0833 Y4.6250
G01 X6.0833 Y4.6354
G01 X6.0833 Y4.6458
G01 X6.0833 Y4.6562
G01 X6.0833 Y4.6667
G01 X6.0938 Y4.6771
G01 X6.0938 Y4.6875
G01 X6.0938 Y4.6979
G01 X6.0938 Y4.7083
G01 X6.0938 Y4.7188
G01 X6.0938 Y4.7292
G01 X6.0938 Y4.7396
G01 X6.0938 Y4.7500
G01 X6.0938 Y4.7604
G01 X6.0938 Y4.7708
G01 X6.0938 Y4.7812
G01 X6.0938 Y4.7917
G01 X6.0938 Y4.8021
G01 X6.0938 Y4.8125
G01 X6.0938 Y4.8229
G01 X6.0938 Y4.8333
G01 X6.0938 Y4.8438
G01 X6.0938 Y4.8542
G01 X6.0938 Y4.8646
G01 X6.0938 Y4.8750
G01 X6.0938 Y4.8854
G01 X6.0833 Y4.8958
G01 X6.0833 Y4.9062
G01 X6.0833 Y4.9167
G01 X6.0833 Y4.9271
G01 X6.0833 Y4.9375
G01 X6.0833 Y4.9479
G01 X6.0833 Y4.9583
G01 X6.0833 Y4.9688
G01 X6.0833 Y4.9792
G01 X6.0833 Y4.9896
G01 X6.0833 Y5.0000
G01 X6.0833 Y5.0104
G01 X6.0833 Y5.0208
G01 X6.0729 Y5.0312
G01 X6.0729 Y5.0417
G01 X6.0625 Y5.0521
G01 X6.0625 Y5.0625
G01 X6.0521 Y5.0729
G01 X6.0521 Y5.0833
G01 X6.0521 Y5.0938
G01 X6.0417 Y5.1042
G01 X6.0417 Y5.1146
G01 X6.0312 Y5.1250
G01 X6.0312 Y5.1354
G01 X6.0312 Y5.1458
G01 X6.0208 Y5.1562
G01 X6.0208 Y5.1667
G01 X6.0208 Y5.1771
G01 X6.0104 Y5.1875
G01 X6.0104 Y5.1979
G01 X6.0104 Y5.2083
G01 X6.0104 Y5.2188
G01 X6.0000 Y5.2292
G01 X6.0000 Y5.2396
G01 X6.0000 Y5.2500
G01 X6.0000 Y5.2604
G01 X6.0000 Y5.2708
G01 X5.9896 Y5.2812
G01 X5.9896 Y5.2917
G01 X5.9896 Y5.3021
G01 X5.9792 Y5.3125
G01 X5.9792 Y5.3229
G01 X5.9688 Y5.3333
G01 X5.9583 Y5.3438
G01 X5.9479 Y5.3542
G01 X5.9375 Y5.3646
G01 X5.9271 Y5.3750
G01 X5.9271 Y5.3854
G01 X5.9167 Y5.3958
G01 X5.9062 Y5.4062
G01 X5.8958 Y5.4167
G01 X5.8854 Y5.4271
G01 X5.8750 Y5.4375
G01 X5.8646 Y5.4479
G01 X5.8542 Y5.4583
G01 X5.8438 Y5.4688
G01 X5.8333 Y5.4792
G01 X5.8229 Y5.4896
G01 X5.8125 Y5.4896
G01 X5.8021 Y5.5000
G01 X5.7917 Y5.5104
G01 X5.7812 Y5.5208
G01 X5.7708 Y5.5208
G01 X5.7604 Y5.5208
G01 X5.7500 Y5.5312
G01 X5.7396 Y5.5312
G01 X5.7292 Y5.5312
G01 X5.7188 Y5.5312
G01 X5.7083 Y5.5312
G01 X5.6979 Y5.5312
G01 X5.6875 Y5.5312
G01 X5.6771 Y5.5312
G01 X5.6667 Y5.5312
G01 X5.6562 Y5.5312
G01 X5.6458 Y5.5312
G01 X5.6354 Y5.5312
G01 X5.6250 Y5.5312
G01 X5.6146 Y5.5312
G01 X5.6042 Y5.5312
G01 X5.5938 Y5.5312
G01 X5.5833 Y5.5312
G00 X7.8958 Y5.5312
G01 X7.8958 Y5.5208
G01 X7.8958 Y5.5104
G01 X7.9062 Y5.5000
G01 X7.8958 Y5.5104
G01 X7.8958 Y5.5208
G00 X7.8958 Y5.4583
G01 X7.8958 Y5.4479
G01 X7.9062 Y5.4375
G01 X7.9062 Y5.4271
G01 X7.9062 Y5.4375
G01 X7.8958 Y5.4479
G00 X7.8854 Y5.7604
G01 X7.8854 Y5.7500
G01 X7.8958 Y5.7396
G01 X7.8958 Y5.7292
G01 X7.8958 Y5.7188
G01 X7.8958 Y5.7083
G01 X7.8958 Y5.6979
G01 X7.8958 Y5.6875
G01 X7.8958 Y5.6771
G01 X7.8958 Y5.6667
G01 X7.8958 Y5.6562
G01 X7.8958 Y5.6458
G01 X7.8958 Y5.6354
G01 X7.8958 Y5.6250
G01 X7.8958 Y5.6146
G01 X7.8958 Y5.6042
G01 X7.8958 Y5.5938
G01 X7.8958 Y5.5833
G01 X7.8958 Y5.5729
G01 X7.8958 Y5.5833
G01 X7.8958 Y5.5938
G01 X7.8958 Y5.6042
G01 X7.8958 Y5.6146
G01 X7.8958 Y5.6250
G01 X7.8958 Y5.6354
G01 X7.8958 Y5.6458
G01 X7.8958 Y5.6562
G01 X7.8958 Y5.6667
G01 X7.8958 Y5.6771
G01 X7.8958 Y5.6875
G01 X7.8958 Y5.6979
G01 X7.8958 Y5.7083
G01 X7.8958 Y5.7188
G01 X7.8958 Y5.7292
G01 X7.8958 Y5.7396
G01 X7.8854 Y5.7500
G01 X7.8854 Y5.7604
G01 X7.8854 Y5.7708
G00 X7.8854 Y5.9792
G01 X7.8854 Y5.9688
G01 X7.8958 Y5.9583
G01 X7.9062 Y5.9479
G01 X7.9167 Y5.9479
G01 X7.9062 Y5.9479
G01 X7.8958 Y5.9583
G01 X7.8854 Y5.9688
G01 X7.8854 Y5.9792
G01 X7.8750 Y5.9896
G00 X7.8646 Y6.0729
G01 X7.8750 Y6.0625
G01 X7.8854 Y6.0625
G01 X7.8958 Y6.0625
G01 X7.9062 Y6.0625
G01 X7.9167 Y6.0625
G01 X7.9271 Y6.0625
G01 X7.9375 Y6.0625
G01 X7.9479 Y6.0521
G01 X7.9583 Y6.0521
G01 X7.9688 Y6.0521
G01 X7.9792 Y6.0521
G01 X7.9896 Y6.0521
G01 X8.0000 Y6.0521
G01 X8.0104 Y6.0521
G01 X8.0208 Y6.0521
G01 X8.0312 Y6.0521
G01 X8.0417 Y6.0521
G01 X8.0521 Y6.0521
G01 X8.0625 Y6.0521
G01 X8.0729 Y6.0521
G01 X8.0833 Y6.0521
G01 X8.0938 Y6.0521
G01 X8.1042 Y6.0521
G01 X8.1146 Y6.0417
G01 X8.1250 Y6.0417
G01 X8.1354 Y6.0417
G01 X8.1458 Y6.0417
G01 X8.1562 Y6.0417
G01 X8.1667 Y6.0417
G01 X8.1771 Y6.0417
G01 X8.1875 Y6.0417
G01 X8.1979 Y6.0417
G01 X8.2083 Y6.0417
G01 X8.2188 Y6.0521
G01 X8.2292 Y6.0521
G01 X8.2396 Y6.0521
G01 X8.2500 Y6.0521
G01 X8.2604 Y6.0521
G01 X8.2708 Y6.0521
G01 X8.2812 Y6.0521
G01 X8.2917 Y6.0521
G01 X8.3021 Y6.0625
G01 X8.3125 Y6.0625
G01 X8.3229 Y6.0625
G01 X8.3333 Y6.0625
G01 X8.3438 Y6.0625
G01 X8.3542 Y6.0625
G01 X8.3646 Y6.0729
G01 X8.3750 Y6.0729
G01 X8.3854 Y6.0729
G01 X8.3958 Y6.0729
G01 X8.4062 Y6.0729
G01 X8.4167 Y6.0729
G01 X8.4271 Y6.0729
G01 X8.4375 Y6.0729
G01 X8.4479 Y6.0729
G01 X8.4583 Y6.0833
G01 X8.4688 Y6.0833
G01 X8.4792 Y6.0833
G01 X8.4896 Y6.0833
G01 X8.5000 Y6.0833
G01 X8.5104 Y6.0833
G01 X8.5208 Y6.0833
G01 X8.5312 Y6.0833
G01 X8.5417 Y6.0833
G01 X8.5521 Y6.0833
G01 X8.5625 Y6.0833
G01 X8.5729 Y6.0833
G01 X8.5833 Y6.0833
G01 X8.5938 Y6.0833
G01 X8.6042 Y6.0833
G01 X8.6146 Y6.0833
G01 X8.6250 Y6.0833
G01 X8.6354 Y6.0833
G01 X8.6458 Y6.0833
G01 X8.6562 Y6.0833
G01 X8.6667 Y6.0833
G01 X8.6771 Y6.0833
G01 X8.6875 Y6.0833
G01 X8.6979 Y6.0833
G01 X8.7083 Y6.0833
G01 X8.7188 Y6.0729
G01 X8.7292 Y6.0729
G01 X8.7396 Y6.0729
G01 X8.7500 Y6.0729
G01 X8.7604 Y6.0729
G01 X8.7708 Y6.0729
G01 X8.7812 Y6.0729
G01 X8.7917 Y6.0729
G01 X8.8021 Y6.0729
G01 X8.8125 Y6.0729
G01 X8.8229 Y6.0625
G01 X8.8333 Y6.0625
G01 X8.8438 Y6.0625
G01 X8.8542 Y6.0625
G01 X8.8646 Y6.0625
G01 X8.8750 Y6.0625
G01 X8.8854 Y6.0625
G01 X8.8958 Y6.0521
G01 X8.9062 Y6.0521
G01 X8.9167 Y6.0521
G01 X8.9271 Y6.0521
G01 X8.9375 Y6.0521
G01 X8.9479 Y6.0417
G01 X8.9583 Y6.0521
G01 X8.9688 Y6.0521
G01 X8.9792 Y6.0521
G01 X8.9896 Y6.0521
G01 X9.0000 Y6.0521
G01 X9.0104 Y6.0521
G01 X9.0208 Y6.0625
G01 X9.0312 Y6.0625
G01 X9.0417 Y6.0625
G01 X9.0521 Y6.0625
G01 X9.0625 Y6.0625
G01 X9.0729 Y6.0625
G01 X9.0833 Y6.0625
G01 X9.0938 Y6.0521
G01 X9.1042 Y6.0417
G01 X9.1042 Y6.0312
G01 X9.1042 Y6.0208
G01 X9.1042 Y6.0104
G01 X9.1042 Y6.0000
G01 X9.1042 Y5.9896
G01 X9.1042 Y5.9792
G01 X9.1042 Y5.9688
G01 X9.1042 Y5.9583
G01 X9.1042 Y5.9479
G01 X9.1042 Y5.9375
G01 X9.1042 Y5.9271
G01 X9.1042 Y5.9167
G01 X9.0938 Y5.9062
G01 X9.0938 Y5.8958
G01 X9.0938 Y5.8854
G01 X9.0938 Y5.8750
G01 X9.0938 Y5.8646
G01 X9.0938 Y5.8542
G01 X9.0938 Y5.8438
G01 X9.0938 Y5.8333
G01 X9.0938 Y5.8229
G01 X9.0938 Y5.8125
G01 X9.0938 Y5.8021
G01 X9.0938 Y5.7917
G01 X9.0938 Y5.7812
G01 X9.0938 Y5.7708
G01 X9.0938 Y5.7604
G01 X9.0938 Y5.7500
G01 X9.0938 Y5.7396
G01 X9.0938 Y5.7292
G01 X9.0938 Y5.7188
G01 X9.0938 Y5.7083
G01 X9.0938 Y5.6979
G01 X9.0833 Y5.6875
G01 X9.0833 Y5.6771
G01 X9.0938 Y5.6667
G01 X9.0938 Y5.6562
G01 X9.0938 Y5.6458
G01 X9.0938 Y5.6354
G01 X9.0938 Y5.6250
G01 X9.0938 Y5.6146
G01 X9.0938 Y5.6042
G01 X9.0938 Y5.5938
G01 X9.0938 Y5.5833
G01 X9.0938 Y5.5729
G01 X9.0938 Y5.5625
G01 X9.0938 Y5.5521
G01 X9.0938 Y5.5417
G01 X9.0938 Y5.5312
G01 X9.0938 Y5.5208
G01 X9.0938 Y5.5104
G01 X9.0938 Y5.5000
G01 X9.0833 Y5.4896
G01 X9.0833 Y5.4792
G01 X9.0833 Y5.4688
G01 X9.0833 Y5.4583
G01 X9.0833 Y5.4479
G01 X9.0833 Y5.4375
G01 X9.0833 Y5.4271
G01 X9.0833 Y5.4167
G01 X9.0833 Y5.4062
G01 X9.0833 Y5.3958
G01 X9.0833 Y5.3854
G01 X9.0833 Y5.3750
G01 X9.0833 Y5.3646
G01 X9.0833 Y5.3542
G01 X9.0833 Y5.3438
G01 X9.0833 Y5.3333
G01 X9.0833 Y5.3229
G01 X9.0833 Y5.3125
G01 X9.0833 Y5.3021
G01 X9.0833 Y5.2917
G01 X9.0833 Y5.2812
G01 X9.0833 Y5.2708
G01 X9.0833 Y5.2604
G01 X9.0833 Y5.2500
G01 X9.0833 Y5.2396
G01 X9.0833 Y5.2292
G01 X9.0833 Y5.2188
G01 X9.0833 Y5.2083
G01 X9.0833 Y5.1979
G01 X9.0833 Y5.1875
G01 X9.0833 Y5.1771
G01 X9.0833 Y5.1667
G01 X9.0833 Y5.1562
G01 X9.0833 Y5.1458
G01 X9.0833 Y5.1354
G01 X9.0833 Y5.1250
G01 X9.0833 Y5.1146
G01 X9.0833 Y5.1042
G01 X9.0833 Y5.0938
G01 X9.0833 Y5.0833
G01 X9.0833 Y5.0729
G01 X9.0833 Y5.0625
G01 X9.0833 Y5.0521
G01 X9.0833 Y5.0417
G01 X9.0833 Y5.0312
G01 X9.0833 Y5.0208
G01 X9.0833 Y5.0104
G01 X9.0833 Y5.0000
G01 X9.0833 Y4.9896
G01 X9.0833 Y4.9792
G01 X9.0833 Y4.9688
G01 X9.0833 Y4.9583
G01 X9.0833 Y4.9479
G01 X9.0833 Y4.9375
G01 X9.0833 Y4.9271
G01 X9.0833 Y4.9167
G01 X9.0833 Y4.9062
G01 X9.0833 Y4.8958
G01 X9.0833 Y4.8854
G01 X9.0833 Y4.8750
G01 X9.0729 Y4.8646
G01 X9.0625 Y4.8646
G01 X9.0521 Y4.8646
G01 X9.0417 Y4.8646
G01 X9.0312 Y4.8646
G01 X9.0208 Y4.8646
G01 X9.0104 Y4.8646
G01 X9.0000 Y4.8750
G01 X8.9896 Y4.8750
G01 X8.9792 Y4.8750
G01 X8.9688 Y4.8750
G01 X8.9583 Y4.8750
G01 X8.9479 Y4.8854
G01 X8.9375 Y4.8854
G01 X8.9271 Y4.8854
G01 X8.9375 Y4.8854
G01 X8.9479 Y4.8854
G01 X8.9583 Y4.8750
G01 X8.9688 Y4.8750
G01 X8.9792 Y4.8750
G01 X8.9896 Y4.8750
G01 X9.0000 Y4.8750
G01 X9.0104 Y4.8646
G01 X9.0208 Y4.8646
G01 X9.0312 Y4.8646
G01 X9.0417 Y4.8646
G01 X9.0521 Y4.8646
G01 X9.0625 Y4.8646
G01 X9.0729 Y4.8646
G01 X9.0833 Y4.8750
G01 X9.0833 Y4.8854
G01 X9.0833 Y4.8958
G01 X9.0833 Y4.9062
G01 X9.0833 Y4.9167
G01 X9.0833 Y4.9271
G01 X9.0833 Y4.9375
G01 X9.0833 Y4.9479
G01 X9.0833 Y4.9583
G01 X9.0833 Y4.9688
G01 X9.0833 Y4.9792
G01 X9.0833 Y4.9896
G01 X9.0833 Y5.0000
G01 X9.0833 Y5.0104
G01 X9.0833 Y5.0208
G01 X9.0833 Y5.0312
G01 X9.0833 Y5.0417
G01 X9.0833 Y5.0521
G01 X9.0833 Y5.0625
G01 X9.0833 Y5.0729
G01 X9.0833 Y5.0833
G01 X9.0833 Y5.0938
G01 X9.0833 Y5.1042
G01 X9.0833 Y5.1146
G01 X9.0833 Y5.1250
G01 X9.0833 Y5.1354
G01 X9.0833 Y5.1458
G01 X9.0833 Y5.1562
G01 X9.0833 Y5.1667
G01 X9.0833 Y5.1771
G01 X9.0833 Y5.1875
G01 X9.0833 Y5.1979
G01 X9.0833 Y5.2083
G01 X9.0833 Y5.2188
G01 X9.0833 Y5.2292
G01 X9.0833 Y5.2396
G01 X9.0833 Y5.2500
G01 X9.0833 Y5.2604
G01 X9.0833 Y5.2708
G01 X9.0833 Y5.2812
G01 X9.0833 Y5.2917
G01 X9.0833 Y5.3021
G01 X9.0833 Y5.3125
G01 X9.0833 Y5.3229
G01 X9.0833 Y5.3333
G01 X9.0833 Y5.3438
G01 X9.0833 Y5.3542
G01 X9.0833 Y5.3646
G01 X9.0833 Y5.3750
G01 X9.0833 Y5.3854
G01 X9.0833 Y5.3958
G01 X9.0833 Y5.4062
G01 X9.0833 Y5.4167
G01 X9.0833 Y5.4271
G01 X9.0833 Y5.4375
G01 X9.0833 Y5.4479
G01 X9.0833 Y5.4583
G01 X9.0833 Y5.4688
G01 X9.0833 Y5.4792
G01 X9.0833 Y5.4896
G01 X9.0938 Y5.5000
G01 X9.0938 Y5.5104
G01 X9.0938 Y5.5208
G01 X9.0938 Y5.5312
G01 X9.0938 Y5.5417
G01 X9.0938 Y5.5521
G01 X9.0938 Y5.5625
G01 X9.0938 Y5.5729
G01 X9.0938 Y5.5833
G01 X9.0938 Y5.5938
G01 X9.0938 Y5.6042
G01 X9.0938 Y5.6146
G01 X9.0938 Y5.6250
G01 X9.0938 Y5.6354
G01 X9.0938 Y5.6458
G01 X9.0938 Y5.6562
G01 X9.0938 Y5.6667
G01 X9.0833 Y5.6771
G01 X9.0833 Y5.6875
G01 X9.0938 Y5.6979
G01 X9.0938 Y5.7083
G01 X9.0938 Y5.7188
G01 X9.0938 Y5.7292
G01 X9.0938 Y5.7396
G01 X9.0938 Y5.7500
G01 X9.0938 Y5.7604
G01 X9.0938 Y5.7708
G01 X9.0938 Y5.7812
G01 X9.0938 Y5.7917
G01 X9.0938 Y5.8021
G01 X9.0938 Y5.8125
G01 X9.0938 Y5.8229
G01 X9.0938 Y5.8333
G01 X9.0938 Y5.8438
G01 X9.0938 Y5.8542
G01 X9.0938 Y5.8646
G01 X9.0938 Y5.8750
G01 X9.0938 Y5.8854
G01 X9.0938 Y5.8958
G01 X9.0938 Y5.9062
G01 X9.1042 Y5.9167
G01 X9.1042 Y5.9271
G01 X9.1042 Y5.9375
G01 X9.1042 Y5.9479
G01 X9.1042 Y5.9583
G01 X9.1042 Y5.9688
G01 X9.1042 Y5.9792
G01 X9.1042 Y5.9896
G01 X9.1042 Y6.0000
G01 X9.1042 Y6.0104
G01 X9.1042 Y6.0208
G01 X9.1042 Y6.0312
G01 X9.1042 Y6.0417
G01 X9.0938 Y6.0521
G01 X9.0833 Y6.0625
G01 X9.0729 Y6.0625
G01 X9.0625 Y6.0625
G01 X9.0521 Y6.0625
G01 X9.0417 Y6.0625
G01 X9.0312 Y6.0625
G01 X9.0208 Y6.0625
G01 X9.0104 Y6.0521
G01 X9.0000 Y6.0521
G01 X8.9896 Y6.0521
G01 X8.9792 Y6.0521
G01 X8.9688 Y6.0521
G01 X8.9583 Y6.0521
G01 X8.9479 Y6.0417
G01 X8.9479 Y6.0312
G01 X8.9479 Y6.0208
G01 X8.9479 Y6.0104
G01 X8.9479 Y6.0000
G01 X8.9479 Y5.9896
G01 X8.9479 Y5.9792
G01 X8.9479 Y5.9688
G01 X8.9479 Y5.9583
G01 X8.9479 Y5.9479
G01 X8.9479 Y5.9375
G01 X8.9583 Y5.9271
G01 X8.9688 Y5.9167
G01 X8.9688 Y5.9062
G01 X8.9688 Y5.8958
G01 X8.9688 Y5.8854
G01 X8.9688 Y5.8750
G01 X8.9688 Y5.8646
G01 X8.9688 Y5.8542
G01 X8.9688 Y5.8438
G01 X8.9688 Y5.8333
G01 X8.9688 Y5.8229
G01 X8.9792 Y5.8125
G01 X8.9792 Y5.8021
G01 X8.9792 Y5.7917
G01 X8.9792 Y5.7812
G01 X8.9792 Y5.7708
G01 X8.9792 Y5.7604
G01 X8.9792 Y5.7500
G01 X8.9792 Y5.7396
G01 X8.9792 Y5.7292
G01 X8.9792 Y5.7188
G01 X8.9792 Y5.7083
G01 X8.9688 Y5.6979
G01 X8.9688 Y5.6875
G01 X8.9688 Y5.6771
G01 X8.9688 Y5.6667
G01 X8.9688 Y5.6562
G01 X8.9688 Y5.6458
G01 X8.9688 Y5.6354
G01 X8.9688 Y5.6250
G01 X8.9688 Y5.6146
G01 X8.9688 Y5.6042
G01 X8.9688 Y5.5938
G01 X8.9688 Y5.5833
G01 X8.9688 Y5.5729
G01 X8.9688 Y5.5625
G01 X8.9688 Y5.5521
G01 X8.9583 Y5.5417
G01 X8.9583 Y5.5312
G01 X8.9583 Y5.5208
G01 X8.9583 Y5.5104
G01 X8.9583 Y5.5000
G01 X8.9583 Y5.4896
G01 X8.9479 Y5.4792
G01 X8.9479 Y5.4688
G01 X8.9479 Y5.4583
G01 X8.9375 Y5.4479
G01 X8.9271 Y5.4375
G01 X8.9271 Y5.4271
G01 X8.9271 Y5.4167
G01 X8.9271 Y5.4062
G01 X8.9271 Y5.3958
G01 X8.9271 Y5.3854
G01 X8.9167 Y5.3750
G01 X8.9167 Y5.3646
G01 X8.9167 Y5.3542
G01 X8.9167 Y5.3438
G01 X8.9167 Y5.3333
G01 X8.9271 Y5.3229
G01 X8.9375 Y5.3229
G01 X8.9479 Y5.3229
G01 X8.9583 Y5.3229
G01 X8.9479 Y5.3229
G01 X8.9375 Y5.3229
G01 X8.9271 Y5.3229
G01 X8.9167 Y5.3229
G01 X8.9062 Y5.3125
G01 X8.9062 Y5.3021
G01 X8.9062 Y5.2917
G01 X8.8958 Y5.2812
G01 X8.8958 Y5.2708
G01 X8.8958 Y5.2604
G01 X8.8958 Y5.2500
G01 X8.8958 Y5.2396
G01 X8.9062 Y5.2292
G01 X8.9167 Y5.2188
G01 X8.9271 Y5.2188
G01 X8.9375 Y5.2083
G01 X8.9479 Y5.1979
G01 X8.9583 Y5.1875
G01 X8.9583 Y5.1771
G01 X8.9479 Y5.1667
G01 X8.9375 Y5.1562
G01 X8.9271 Y5.1562
G01 X8.9167 Y5.1562
G01 X8.9062 Y5.1562
G01 X8.8958 Y5.1562
G01 X8.8854 Y5.1458
G01 X8.8854 Y5.1354
G01 X8.8854 Y5.1250
G01 X8.8854 Y5.1146
G01 X8.8854 Y5.1042
G01 X8.8854 Y5.0938
G01 X8.8854 Y5.0833
G01 X8.8854 Y5.0729
G01 X8.8854 Y5.0625
G01 X8.8854 Y5.0521
G01 X8.8750 Y5.0417
G01 X8.8750 Y5.0312
G01 X8.8750 Y5.0208
G01 X8.8750 Y5.0104
G01 X8.8750 Y5.0000
G01 X8.8750 Y4.9896
G01 X8.8750 Y4.9792
G01 X8.8750 Y4.9688
G01 X8.8750 Y4.9583
G01 X8.8646 Y4.9479
G01 X8.8646 Y4.9375
G01 X8.8646 Y4.9271
G01 X8.8646 Y4.9167
G01 X8.8646 Y4.9062
G01 X8.8646 Y4.8958
G01 X8.8750 Y4.8854
G01 X8.8854 Y4.8854
G01 X8.8958 Y4.8958
G01 X8.8854 Y4.8854
G01 X8.8750 Y4.8854
G01 X8.8646 Y4.8958
G01 X8.8542 Y4.8958
G01 X8.8438 Y4.8958
G01 X8.8333 Y4.8958
G01 X8.8229 Y4.8958
G01 X8.8125 Y4.8958
G01 X8.8021 Y4.8958
G01 X8.7917 Y4.9062
G01 X8.7812 Y4.9062
G01 X8.7708 Y4.9062
G01 X8.7604 Y4.9062
G01 X8.7500 Y4.9062
G01 X8.7396 Y4.9062
G01 X8.7292 Y4.9062
G01 X8.7188 Y4.9062
G01 X8.7083 Y4.9062
G01 X8.6979 Y4.9167
G01 X8.6875 Y4.9167
G01 X8.6771 Y4.9167
G01 X8.6667 Y4.9167
G01 X8.6562 Y4.9167
G01 X8.6458 Y4.9167
G01 X8.6354 Y4.9167
G01 X8.6250 Y4.9167
G01 X8.6146 Y4.9167
G01 X8.6042 Y4.9167
G01 X8.5938 Y4.9167
G01 X8.5833 Y4.9167
G01 X8.5729 Y4.9167
G01 X8.5625 Y4.9167
G01 X8.5521 Y4.9167
G01 X8.5417 Y4.9167
G01 X8.5312 Y4.9271
G01 X8.5208 Y4.9271
G01 X8.5104 Y4.9271
G01 X8.5000 Y4.9271
G01 X8.4896 Y4.9271
G01 X8.4792 Y4.9271
G01 X8.4688 Y4.9375
G01 X8.4583 Y4.9375
G01 X8.4479 Y4.9375
G01 X8.4375 Y4.9479
G01 X8.4271 Y4.9479
G01 X8.4167 Y4.9479
G01 X8.4062 Y4.9479
G01 X8.3958 Y4.9479
G01 X8.3854 Y4.9479
G01 X8.3750 Y4.9583
G01 X8.3646 Y4.9583
G01 X8.3542 Y4.9583
G01 X8.3438 Y4.9583
G01 X8.3333 Y4.9583
G01 X8.3229 Y4.9583
G01 X8.3125 Y4.9583
G01 X8.3021 Y4.9583
G01 X8.2917 Y4.9583
G01 X8.2812 Y4.9479
G01 X8.2708 Y4.9479
G01 X8.2604 Y4.9479
G01 X8.2500 Y4.9479
G01 X8.2396 Y4.9479
G01 X8.2292 Y4.9479
G01 X8.2188 Y4.9479
G01 X8.2083 Y4.9479
G01 X8.1979 Y4.9479
G01 X8.1875 Y4.9479
G01 X8.1771 Y4.9479
G01 X8.1667 Y4.9479
G01 X8.1562 Y4.9479
G01 X8.1458 Y4.9479
G01 X8.1354 Y4.9479
G01 X8.1250 Y4.9479
G01 X8.1146 Y4.9479
G01 X8.1042 Y4.9583
G01 X8.0938 Y4.9583
G01 X8.0833 Y4.9583
G01 X8.0729 Y4.9583
G01 X8.0625 Y4.9583
G01 X8.0521 Y4.9479
G01 X8.0417 Y4.9479
G01 X8.0312 Y4.9479
G01 X8.0208 Y4.9375
G01 X8.0104 Y4.9375
G01 X8.0000 Y4.9271
G01 X7.9896 Y4.9271
G01 X7.9792 Y4.9271
G01 X7.9688 Y4.9167
G01 X7.9583 Y4.9167
G01 X7.9479 Y4.9167
G01 X7.9375 Y4.9167
G01 X7.9271 Y4.9167
G01 X7.9167 Y4.9271
G01 X7.9167 Y4.9375
G01 X7.9167 Y4.9479
G01 X7.9167 Y4.9583
G01 X7.9167 Y4.9688
G01 X7.9167 Y4.9792
G01 X7.9167 Y4.9896
G01 X7.9167 Y5.0000
G01 X7.9167 Y5.0104
G01 X7.9167 Y5.0208
G01 X7.9167 Y5.0312
G01 X7.9062 Y5.0417
G01 X7.9062 Y5.0521
G01 X7.9062 Y5.0625
G01 X7.9062 Y5.0729
G01 X7.9062 Y5.0833
G01 X7.9062 Y5.0938
G01 X7.9062 Y5.1042
G01 X7.9062 Y5.1146
G01 X7.9062 Y5.1250
G01 X7.9062 Y5.1354
G01 X7.9062 Y5.1458
G01 X7.9062 Y5.1562
G01 X7.9062 Y5.1667
G01 X7.9062 Y5.1771
G01 X7.9062 Y5.1875
G01 X7.9062 Y5.1979
G01 X7.9062 Y5.2083
G01 X7.9062 Y5.2188
G01 X7.9062 Y5.2292
G01 X7.9062 Y5.2396
G01 X7.9062 Y5.2500
G01 X7.8958 Y5.2604
G01 X7.8958 Y5.2708
G01 X7.9062 Y5.2812
G01 X7.9062 Y5.2917
G01 X7.9062 Y5.3021
G01 X7.9062 Y5.3125
G01 X7.9062 Y5.3229
G01 X7.9062 Y5.3333
G01 X7.9062 Y5.3438
G01 X7.9062 Y5.3542
G01 X7.9062 Y5.3646
G01 X7.9062 Y5.3750
G01 X7.9062 Y5.3854
G01 X7.9062 Y5.3750
G01 X7.9062 Y5.3646
G01 X7.9062 Y5.3542
G01 X7.9062 Y5.3438
G01 X7.9062 Y5.3333
G01 X7.9062 Y5.3229
G01 X7.9062 Y5.3125
G01 X7.9062 Y5.3021
G01 X7.9062 Y5.2917
G01 X7.9062 Y5.2812
G01 X7.8958 Y5.2708
G01 X7.8958 Y5.2604
G01 X7.9062 Y5.2500
G01 X7.9062 Y5.2396
G01 X7.9062 Y5.2292
G01 X7.9062 Y5.2188
G01 X7.9062 Y5.2083
G01 X7.9062 Y5.1979
G01 X7.9062 Y5.1875
G01 X7.9062 Y5.1771
G01 X7.9062 Y5.1667
G01 X7.9062 Y5.1562
G01 X7.9062 Y5.1458
G01 X7.9062 Y5.1354
G01 X7.9062 Y5.1250
G01 X7.9062 Y5.1146
G01 X7.9062 Y5.1042
G01 X7.9062 Y5.0938
G01 X7.9062 Y5.0833
G01 X7.9062 Y5.0729
G01 X7.9062 Y5.0625
G01 X7.9062 Y5.0521
G01 X7.9062 Y5.0417
G01 X7.9167 Y5.0312
G01 X7.9167 Y5.0208
G01 X7.9167 Y5.0104
G01 X7.9167 Y5.0000
G01 X7.9167 Y4.9896
G01 X7.9167 Y4.9792
G01 X7.9167 Y4.9688
G01 X7.9167 Y4.9583
G01 X7.9167 Y4.9479
G01 X7.9167 Y4.9375
G01 X7.9167 Y4.9271
G01 X7.9271 Y4.9167
G01 X7.9375 Y4.9167
G01 X7.9479 Y4.9167
G01 X7.9583 Y4.9167
G01 X7.9688 Y4.9167
G01 X7.9792 Y4.9271
G01 X7.9896 Y4.9271
G01 X8.0000 Y4.9271
G01 X8.0104 Y4.9375
G01 X8.0208 Y4.9375
G01 X8.0312 Y4.9479
G01 X8.0417 Y4.9479
G01 X8.0521 Y4.9479
G01 X8.0625 Y4.9583
G01 X8.0729 Y4.9583
G01 X8.0833 Y4.9583
G01 X8.0938 Y4.9583
G01 X8.1042 Y4.9583
G01 X8.1146 Y4.9479
G01 X8.1250 Y4.9479
G01 X8.1354 Y4.9479
G01 X8.1458 Y4.9479
G01 X8.1562 Y4.9479
G01 X8.1667 Y4.9479
G01 X8.1771 Y4.9479
G01 X8.1875 Y4.9479
G01 X8.1979 Y4.9479
G01 X8.2083 Y4.9479
G01 X8.2188 Y4.9479
G01 X8.2292 Y4.9479
G01 X8.2396 Y4.9479
G01 X8.2500 Y4.9479
G01 X8.2604 Y4.9479
G01 X8.2708 Y4.9479
G01 X8.2812 Y4.9479
G01 X8.2917 Y4.9583
G01 X8.3021 Y4.9583
G01 X8.3125 Y4.9583
G01 X8.3229 Y4.9583
G01 X8.3333 Y4.9583
G01 X8.3438 Y4.9583
G01 X8.3542 Y4.9583
G01 X8.3646 Y4.9583
G01 X8.3750 Y4.9583
G01 X8.3854 Y4.9479
G01 X8.3958 Y4.9479
G01 X8.4062 Y4.9479
G01 X8.4167 Y4.9479
G01 X8.4271 Y4.9479
G01 X8.4375 Y4.9479
G01 X8.4479 Y4.9375
G01 X8.4583 Y4.9375
G01 X8.4688 Y4.9375
G01 X8.4792 Y4.9271
G01 X8.4896 Y4.9271
G01 X8.5000 Y4.9271
G01 X8.5104 Y4.9271
G01 X8.5208 Y4.9271
G01 X8.5312 Y4.9271
G01 X8.5417 Y4.9167
G01 X8.5521 Y4.9167
G01 X8.5625 Y4.9167
G01 X8.5729 Y4.9167
G01 X8.5833 Y4.9167
G01 X8.5938 Y4.9167
G01 X8.6042 Y4.9167
G01 X8.6146 Y4.9167
G01 X8.6250 Y4.9167
G01 X8.6354 Y4.9167
G01 X8.6458 Y4.9167
G01 X8.6562 Y4.9167
G01 X8.6667 Y4.9167
G01 X8.6771 Y4.9167
G01 X8.6875 Y4.9167
G01 X8.6979 Y4.9167
G01 X8.7083 Y4.9062
G01 X8.7188 Y4.9062
G01 X8.7292 Y4.9062
G01 X8.7396 Y4.9062
G01 X8.7500 Y4.9062
G01 X8.7604 Y4.9062
G01 X8.7708 Y4.9062
G01 X8.7812 Y4.9062
G01 X8.7917 Y4.9062
G01 X8.8021 Y4.8958
G01 X8.8125 Y4.8958
G01 X8.8229 Y4.8958
G01 X8.8333 Y4.8958
G01 X8.8438 Y4.8958
G01 X8.8542 Y4.8958
G01 X8.8646 Y4.9062
G01 X8.8646 Y4.9167
G01 X8.8646 Y4.9271
G01 X8.8646 Y4.9375
G01 X8.8646 Y4.9479
G01 X8.8750 Y4.9583
G01 X8.8750 Y4.9688
G01 X8.8750 Y4.9792
G01 X8.8750 Y4.9896
G01 X8.8750 Y5.0000
G01 X8.8750 Y5.0104
G01 X8.8750 Y5.0208
G01 X8.8750 Y5.0312
G01 X8.8750 Y5.0417
G01 X8.8854 Y5.0521
G01 X8.8854 Y5.0625
G01 X8.8854 Y5.0729
G01 X8.8854 Y5.0833
G01 X8.8854 Y5.0938
G01 X8.8854 Y5.1042
G01 X8.8854 Y5.1146
G01 X8.8854 Y5.1250
G01 X8.8854 Y5.1354
G01 X8.8854 Y5.1458
G01 X8.8958 Y5.1562
G01 X8.8958 Y5.1667
G01 X8.8958 Y5.1771
G01 X8.8854 Y5.1875
G01 X8.8750 Y5.1979
G01 X8.8646 Y5.1979
G01 X8.8542 Y5.1979
G01 X8.8438 Y5.2083
G01 X8.8333 Y5.2083
G01 X8.8229 Y5.2188
G01 X8.8125 Y5.2292
G01 X8.8021 Y5.2396
G01 X8.7917 Y5.2500
G01 X8.7812 Y5.2604
G01 X8.7708 Y5.2500
G01 X8.7604 Y5.2396
G01 X8.7500 Y5.2396
G01 X8.7396 Y5.2396
G01 X8.7292 Y5.2292
G01 X8.7188 Y5.2188
G01 X8.7083 Y5.2083
G01 X8.6979 Y5.2083
G01 X8.6875 Y5.2083
G01 X8.6771 Y5.1979
G01 X8.6667 Y5.1979
G01 X8.6562 Y5.1979
G01 X8.6458 Y5.1979
G01 X8.6354 Y5.1979
G01 X8.6250 Y5.1979
G01 X8.6146 Y5.1875
G01 X8.6146 Y5.1771
G01 X8.6250 Y5.1667
G01 X8.6250 Y5.1562
G01 X8.6250 Y5.1458
G01 X8.6250 Y5.1354
G01 X8.6250 Y5.1250
G01 X8.6250 Y5.1146
G01 X8.6250 Y5.1042
G01 X8.6250 Y5.0938
G01 X8.6250 Y5.0833
G01 X8.6146 Y5.0729
G01 X8.6146 Y5.0625
G01 X8.6146 Y5.0521
G01 X8.6146 Y5.0417
G01 X8.6146 Y5.0312
G01 X8.6146 Y5.0208
G01 X8.6146 Y5.0104
G01 X8.6146 Y5.0000
G01 X8.6146 Y4.9896
G01 X8.6250 Y4.9792
G01 X8.6146 Y4.9896
G01 X8.6146 Y5.0000
G01 X8.6146 Y5.0104
G01 X8.6146 Y5.0208
G01 X8.6146 Y5.0312
G01 X8.6146 Y5.0417
G01 X8.6146 Y5.0521
G01 X8.6146 Y5.0625
G01 X8.6146 Y5.0729
G01 X8.6250 Y5.0833
G01 X8.6250 Y5.0938
G01 X8.6250 Y5.1042
G01 X8.6250 Y5.1146
G01 X8.6250 Y5.1250
G01 X8.6250 Y5.1354
G01 X8.6250 Y5.1458
G01 X8.6250 Y5.1562
G01 X8.6250 Y5.1667
G01 X8.6146 Y5.1771
G01 X8.6042 Y5.1875
G01 X8.5938 Y5.1875
G01 X8.5833 Y5.1875
G01 X8.5729 Y5.1875
G01 X8.5625 Y5.1875
G01 X8.5521 Y5.1875
G01 X8.5417 Y5.1875
G01 X8.5312 Y5.1875
G01 X8.5208 Y5.1771
G01 X8.5104 Y5.1667
G01 X8.5104 Y5.1562
G01 X8.5000 Y5.1458
G01 X8.5000 Y5.1354
G01 X8.4896 Y5.1250
G01 X8.4792 Y5.1146
G01 X8.4792 Y5.1042
G01 X8.4688 Y5.0938
G01 X8.4583 Y5.0833
G01 X8.4479 Y5.0729
G01 X8.4479 Y5.0625
G01 X8.4479 Y5.0521
G01 X8.4479 Y5.0417
G01 X8.4583 Y5.0312
G01 X8.4688 Y5.0208
G01 X8.4583 Y5.0312
G01 X8.4479 Y5.0312
G01 X8.4375 Y5.0312
G01 X8.4271 Y5.0312
G01 X8.4167 Y5.0208
G01 X8.4062 Y5.0104
G01 X8.4167 Y5.0208
G01 X8.4167 Y5.0312
G01 X8.4062 Y5.0417
G01 X8.3958 Y5.0417
G01 X8.3854 Y5.0521
G01 X8.3750 Y5.0521
G01 X8.3646 Y5.0521
G01 X8.3542 Y5.0521
G01 X8.3438 Y5.0521
G01 X8.3333 Y5.0521
G01 X8.3229 Y5.0521
G01 X8.3125 Y5.0521
G01 X8.3021 Y5.0521
G01 X8.2917 Y5.0521
G01 X8.2812 Y5.0521
G01 X8.2708 Y5.0417
G01 X8.2604 Y5.0312
G01 X8.2500 Y5.0312
G01 X8.2396 Y5.0208
G01 X8.2292 Y5.0208
G01 X8.2188 Y5.0208
G01 X8.2083 Y5.0208
G01 X8.2188 Y5.0208
G01 X8.2292 Y5.0208
G01 X8.2396 Y5.0208
G01 X8.2500 Y5.0312
G01 X8.2604 Y5.0312
G01 X8.2708 Y5.0417
G01 X8.2812 Y5.0521
G01 X8.2917 Y5.0521
G01 X8.3021 Y5.0625
G01 X8.3125 Y5.0729
G01 X8.3125 Y5.0833
G01 X8.3125 Y5.0729
G01 X8.3021 Y5.0625
G01 X8.3125 Y5.0521
G01 X8.3229 Y5.0521
G01 X8.3333 Y5.0521
G01 X8.3438 Y5.0521
G01 X8.3542 Y5.0521
G01 X8.3646 Y5.0521
G01 X8.3750 Y5.0521
G01 X8.3854 Y5.0521
G01 X8.3958 Y5.0417
G01 X8.4062 Y5.0417
G01 X8.4167 Y5.0312
G01 X8.4271 Y5.0312
G01 X8.4375 Y5.0312
G01 X8.4479 Y5.0417
G01 X8.4479 Y5.0521
G01 X8.4479 Y5.0625
G01 X8.4479 Y5.0729
G01 X8.4583 Y5.0833
G01 X8.4688 Y5.0938
G01 X8.4792 Y5.1042
G01 X8.4792 Y5.1146
G01 X8.4896 Y5.1250
G01 X8.5000 Y5.1354
G01 X8.5000 Y5.1458
G01 X8.5104 Y5.1562
G01 X8.5104 Y5.1667
G01 X8.5208 Y5.1771
G01 X8.5208 Y5.1875
G01 X8.5312 Y5.1979
G01 X8.5208 Y5.2083
G01 X8.5104 Y5.2188
G01 X8.5000 Y5.2292
G01 X8.4896 Y5.2292
G01 X8.4792 Y5.2396
G01 X8.4688 Y5.2500
G01 X8.4688 Y5.2604
G01 X8.4583 Y5.2708
G01 X8.4583 Y5.2812
G01 X8.4479 Y5.2917
G01 X8.4375 Y5.3021
G01 X8.4375 Y5.3125
G01 X8.4375 Y5.3229
G01 X8.4271 Y5.3333
G01 X8.4271 Y5.3438
G01 X8.4271 Y5.3542
G01 X8.4271 Y5.3646
G01 X8.4271 Y5.3750
G01 X8.4271 Y5.3854
G01 X8.4271 Y5.3958
G01 X8.4271 Y5.4062
G01 X8.4167 Y5.4167
G01 X8.4062 Y5.4167
G01 X8.3958 Y5.4167
G01 X8.4062 Y5.4167
G01 X8.4167 Y5.4167
G01 X8.4271 Y5.4271
G01 X8.4271 Y5.4375
G01 X8.4271 Y5.4479
G01 X8.4271 Y5.4583
G01 X8.4271 Y5.4688
G01 X8.4271 Y5.4792
G01 X8.4167 Y5.4896
G01 X8.4062 Y5.4896
G01 X8.3958 Y5.4896
G01 X8.3854 Y5.4896
G01 X8.3750 Y5.4896
G01 X8.3646 Y5.4896
G01 X8.3542 Y5.4896
G01 X8.3438 Y5.4896
G01 X8.3333 Y5.4792
G01 X8.3229 Y5.4792
G01 X8.3125 Y5.4792
G01 X8.3021 Y5.4792
G01 X8.3125 Y5.4792
G01 X8.3229 Y5.4792
G01 X8.3333 Y5.4792
G01 X8.3438 Y5.4896
G01 X8.3542 Y5.4896
G01 X8.3646 Y5.4896
G01 X8.3750 Y5.4896
G01 X8.3854 Y5.4896
G01 X8.3958 Y5.4896
G01 X8.4062 Y5.4896
G01 X8.4167 Y5.5000
G01 X8.4167 Y5.5104
G01 X8.4167 Y5.5208
G01 X8.4167 Y5.5312
G01 X8.4167 Y5.5417
G01 X8.4271 Y5.5521
G01 X8.4271 Y5.5625
G01 X8.4375 Y5.5729
G01 X8.4375 Y5.5833
G01 X8.4479 Y5.5938
G01 X8.4583 Y5.6042
G01 X8.4688 Y5.6042
G01 X8.4792 Y5.6146
G01 X8.4896 Y5.6146
G01 X8.5000 Y5.6250
G01 X8.5104 Y5.6250
G01 X8.5208 Y5.6250
G01 X8.5312 Y5.6146
G01 X8.5417 Y5.6146
G01 X8.5521 Y5.6042
G01 X8.5625 Y5.6042
G01 X8.5729 Y5.5938
G01 X8.5833 Y5.5833
G01 X8.5938 Y5.5729
G01 X8.6042 Y5.5625
G01 X8.6042 Y5.5521
G01 X8.6042 Y5.5417
G01 X8.6146 Y5.5312
G01 X8.6146 Y5.5208
G01 X8.6250 Y5.5104
G01 X8.6250 Y5.5000
G01 X8.6354 Y5.4896
G01 X8.6458 Y5.4792
G01 X8.6562 Y5.4792
G01 X8.6667 Y5.4792
G01 X8.6771 Y5.4688
G01 X8.6875 Y5.4688
G01 X8.6979 Y5.4583
G01 X8.7083 Y5.4583
G01 X8.7188 Y5.4583
G01 X8.7292 Y5.4479
G01 X8.7396 Y5.4375
G01 X8.7500 Y5.4271
G01 X8.7500 Y5.4167
G01 X8.7604 Y5.4062
G01 X8.7708 Y5.3958
G01 X8.7812 Y5.3854
G01 X8.7917 Y5.3750
G01 X8.8021 Y5.3646
G01 X8.8021 Y5.3542
G01 X8.8125 Y5.3438
G01 X8.8125 Y5.3333
G01 X8.8229 Y5.3229
G01 X8.8333 Y5.3125
G01 X8.8333 Y5.3021
G01 X8.8438 Y5.2917
G01 X8.8542 Y5.2812
G01 X8.8646 Y5.2812
G01 X8.8750 Y5.2812
G01 X8.8854 Y5.2708
G01 X8.8958 Y5.2812
G01 X8.9062 Y5.2917
G01 X8.9062 Y5.3021
G01 X8.9062 Y5.3125
G01 X8.9062 Y5.3229
G01 X8.9167 Y5.3333
G01 X8.9167 Y5.3438
G01 X8.9167 Y5.3542
G01 X8.9167 Y5.3646
G01 X8.9167 Y5.3750
G01 X8.9271 Y5.3854
G01 X8.9271 Y5.3958
G01 X8.9271 Y5.4062
G01 X8.9271 Y5.4167
G01 X8.9271 Y5.4271
G01 X8.9271 Y5.4375
G01 X8.9271 Y5.4479
G01 X8.9167 Y5.4583
G01 X8.9062 Y5.4583
G01 X8.8958 Y5.4688
G01 X8.9062 Y5.4583
G01 X8.9167 Y5.4583
G01 X8.9271 Y5.4479
G01 X8.9375 Y5.4479
G01 X8.9479 Y5.4583
G01 X8.9479 Y5.4688
G01 X8.9479 Y5.4792
G01 X8.9583 Y5.4896
G01 X8.9583 Y5.5000
G01 X8.9583 Y5.5104
G01 X8.9583 Y5.5208
G01 X8.9583 Y5.5312
G01 X8.9583 Y5.5417
G01 X8.9688 Y5.5521
G01 X8.9688 Y5.5625
G01 X8.9688 Y5.5729
G01 X8.9688 Y5.5833
G01 X8.9688 Y5.5938
G01 X8.9688 Y5.6042
G01 X8.9688 Y5.6146
G01 X8.9688 Y5.6250
G01 X8.9688 Y5.6354
G01 X8.9688 Y5.6458
G01 X8.9688 Y5.6562
G01 X8.9688 Y5.6667
G01 X8.9688 Y5.6771
G01 X8.9688 Y5.6875
G01 X8.9688 Y5.6979
G01 X8.9792 Y5.7083
G01 X8.9792 Y5.7188
G01 X8.9792 Y5.7292
G01 X8.9792 Y5.7396
G01 X8.9792 Y5.7500
G01 X8.9792 Y5.7604
G01 X8.9792 Y5.7708
G01 X8.9792 Y5.7812
G01 X8.9792 Y5.7917
G01 X8.9792 Y5.8021
G01 X8.9792 Y5.8125
G01 X8.9688 Y5.8229
G01 X8.9688 Y5.8333
G01 X8.9688 Y5.8438
G01 X8.9688 Y5.8542
G01 X8.9688 Y5.8646
G01 X8.9688 Y5.8750
G01 X8.9688 Y5.8854
G01 X8.9688 Y5.8958
G01 X8.9688 Y5.9062
G01 X8.9688 Y5.9167
G01 X8.9583 Y5.9271
G01 X8.9479 Y5.9271
G01 X8.9375 Y5.9271
G01 X8.9271 Y5.9167
G01 X8.9271 Y5.9062
G01 X8.9271 Y5.8958
G01 X8.9167 Y5.8854
G01 X8.9271 Y5.8958
G01 X8.9271 Y5.9062
G01 X8.9271 Y5.9167
G01 X8.9375 Y5.9271
G01 X8.9479 Y5.9375
G01 X8.9479 Y5.9479
G01 X8.9479 Y5.9583
G01 X8.9479 Y5.9688
G01 X8.9479 Y5.9792
G01 X8.9479 Y5.9896
G01 X8.9479 Y6.0000
G01 X8.9479 Y6.0104
G01 X8.9479 Y6.0208
G01 X8.9479 Y6.0312
G01 X8.9479 Y6.0417
G01 X8.9375 Y6.0521
G01 X8.9271 Y6.0521
G01 X8.9167 Y6.0521
G01 X8.9062 Y6.0521
G01 X8.8958 Y6.0521
G01 X8.8854 Y6.0625
G01 X8.8750 Y6.0625
G01 X8.8646 Y6.0625
G01 X8.8542 Y6.0625
G01 X8.8438 Y6.0625
G01 X8.8333 Y6.0625
G01 X8.8229 Y6.0625
G01 X8.8125 Y6.0729
G01 X8.8021 Y6.0729
G01 X8.7917 Y6.0729
G01 X8.7812 Y6.0729
G01 X8.7708 Y6.0729
G01 X8.7604 Y6.0729
G01 X8.7500 Y6.0729
G01 X8.7396 Y6.0729
G01 X8.7292 Y6.0729
G01 X8.7188 Y6.0729
G01 X8.7083 Y6.0833
G01 X8.6979 Y6.0833
G01 X8.6875 Y6.0833
G01 X8.6771 Y6.0833
G01 X8.6667 Y6.0833
G01 X8.6562 Y6.0833
G01 X8.6458 Y6.0833
G01 X8.6354 Y6.0833
G01 X8.6250 Y6.0833
G01 X8.6146 Y6.0833
G01 X8.6042 Y6.0833
G01 X8.5938 Y6.0833
G01 X8.5833 Y6.0833
G01 X8.5729 Y6.0833
G01 X8.5625 Y6.0833
G01 X8.5521 Y6.0833
G01 X8.5417 Y6.0833
G01 X8.5312 Y6.0833
G01 X8.5208 Y6.0833
G01 X8.5104 Y6.0833
G01 X8.5000 Y6.0833
G01 X8.4896 Y6.0833
G01 X8.4792 Y6.0833
G01 X8.4688 Y6.0833
G01 X8.4583 Y6.0833
G01 X8.4479 Y6.0729
G01 X8.4375 Y6.0729
G01 X8.4271 Y6.0729
G01 X8.4167 Y6.0729
G01 X8.4062 Y6.0625
G01 X8.4062 Y6.0521
G01 X8.4062 Y6.0417
G01 X8.4062 Y6.0312
G01 X8.3958 Y6.0208
G01 X8.4062 Y6.0312
G01 X8.4062 Y6.0417
G01 X8.4062 Y6.0521
G01 X8.4062 Y6.0625
G01 X8.3958 Y6.0729
G01 X8.3854 Y6.0729
G01 X8.3750 Y6.0729
G01 X8.3646 Y6.0729
G01 X8.3542 Y6.0625
G01 X8.3438 Y6.0625
G01 X8.3333 Y6.0625
G01 X8.3229 Y6.0625
G01 X8.3125 Y6.0625
G01 X8.3021 Y6.0625
G01 X8.2917 Y6.0521
G01 X8.2812 Y6.0521
G01 X8.2708 Y6.0521
G01 X8.2604 Y6.0521
G01 X8.2500 Y6.0521
G01 X8.2396 Y6.0521
G01 X8.2292 Y6.0521
G01 X8.2188 Y6.0521
G01 X8.2083 Y6.0417
G01 X8.1979 Y6.0417
G01 X8.1875 Y6.0417
G01 X8.1771 Y6.0417
G01 X8.1667 Y6.0417
G01 X8.1562 Y6.0417
G01 X8.1458 Y6.0417
G01 X8.1354 Y6.0417
G01 X8.1250 Y6.0417
G01 X8.1146 Y6.0417
G01 X8.1042 Y6.0521
G01 X8.0938 Y6.0521
G01 X8.0833 Y6.0521
G01 X8.0729 Y6.0521
G01 X8.0625 Y6.0521
G01 X8.0521 Y6.0521
G01 X8.0417 Y6.0521
G01 X8.0312 Y6.0521
G01 X8.0208 Y6.0521
G01 X8.0104 Y6.0521
G01 X8.0000 Y6.0521
G01 X7.9896 Y6.0521
G01 X7.9792 Y6.0521
G01 X7.9688 Y6.0521
G01 X7.9583 Y6.0521
G01 X7.9479 Y6.0521
G01 X7.9375 Y6.0625
G01 X7.9271 Y6.0625
G01 X7.9167 Y6.0625
G01 X7.9062 Y6.0625
G01 X7.8958 Y6.0625
G01 X7.8854 Y6.0625
G01 X7.8750 Y6.0625
G01 X7.8646 Y6.0521
G01 X7.8646 Y6.0417
G01 X7.8646 Y6.0521
G01 X7.8646 Y6.0625
G01 X7.8646 Y6.0729
G01 X7.8646 Y6.0833
G00 X8.3542 Y5.9375
G01 X8.3438 Y5.9271
G01 X8.3438 Y5.9167
G01 X8.3333 Y5.9062
G01 X8.3438 Y5.9167
G01 X8.3438 Y5.9271
G01 X8.3542 Y5.9375
G01 X8.3646 Y5.9479
G00 X8.8229 Y5.9479
G01 X8.8333 Y5.9479
G00 X8.9271 Y5.8542
G01 X8.9167 Y5.8438
G00 X8.9062 Y5.7812
G01 X8.9062 Y5.7708
G00 X8.7917 Y5.1875
G01 X8.7917 Y5.1771
G01 X8.8021 Y5.1667
G01 X8.8021 Y5.1562
G01 X8.8021 Y5.1458
G01 X8.8021 Y5.1354
G01 X8.8021 Y5.1250
G01 X8.8021 Y5.1146
G01 X8.8021 Y5.1042
G01 X8.8021 Y5.0938
G01 X8.8021 Y5.0833
G01 X8.7917 Y5.0729
G01 X8.7917 Y5.0625
G01 X8.7917 Y5.0521
G01 X8.7917 Y5.0417
G01 X8.7917 Y5.0312
G01 X8.8021 Y5.0208
G01 X8.7917 Y5.0104
G01 X8.7917 Y5.0000
G01 X8.7917 Y5.0104
G01 X8.8021 Y5.0208
G01 X8.7917 Y5.0312
G01 X8.7917 Y5.0417
G01 X8.7917 Y5.0521
G01 X8.7917 Y5.0625
G01 X8.7917 Y5.0729
G01 X8.8021 Y5.0833
G01 X8.8021 Y5.0938
G01 X8.8021 Y5.1042
G01 X8.8021 Y5.1146
G01 X8.8021 Y5.1250
G01 X8.8021 Y5.1354
G01 X8.8021 Y5.1458
G01 X8.8021 Y5.1562
G01 X8.8021 Y5.1667
G01 X8.7917 Y5.1771
G00 X8.3854 Y5.3854
G01 X8.3750 Y5.3750
G01 X8.3646 Y5.3646
G01 X8.3750 Y5.3750
M2

M3 S30 ; PEN UP
G28 ; Return home
M30 ; Program end
